show,season,ep,title,city_or_area,country,state,coordinates,source,lat,long,tt,country_clean
No Reservations,1,1,France: Why the French Don't Suck,Paris,France,NA,"48.856614,2.352222",https://en.wikipedia.org/wiki/Anthony_Bourdain:_No_Reservations,48.856614,2.352222,"Season 1 | Ep. 1 | Paris, France",France
No Reservations,1,2,Iceland: Hello Darkness My Old Friend,Reykjavík,Iceland,NA,"64.126521,-21.817439",https://en.wikipedia.org/wiki/Anthony_Bourdain:_No_Reservations,64.126521,-21.817439,"Season 1 | Ep. 2 | Reykjavík, Iceland",Iceland
No Reservations,1,3,New Jersey,Fort Lee,United States,NJ,"40.850933,-73.970138",http://ethnicnj.com/bourdains-new-jersey-the-restaurants/,40.850933,-73.970138,"Season 1 | Ep. 3 | Fort Lee, United States",USA
No Reservations,1,3,New Jersey,Barnegat Light,United States,NJ,"39.757620,-74.106247",http://ethnicnj.com/bourdains-new-jersey-the-restaurants/,39.75762,-74.106247,"Season 1 | Ep. 3 | Barnegat Light, United States",USA
No Reservations,1,3,New Jersey,Atlantic City,United States,NJ,"39.364283,-74.422927",http://ethnicnj.com/bourdains-new-jersey-the-restaurants/,39.364283,-74.422927,"Season 1 | Ep. 3 | Atlantic City, United States",USA
No Reservations,1,3,New Jersey,Camden,United States,NJ,"39.925946,-75.119620",http://ethnicnj.com/bourdains-new-jersey-the-restaurants/,39.925946,-75.11962,"Season 1 | Ep. 3 | Camden, United States",USA
No Reservations,1,3,New Jersey,Warren Grove,United States,NJ,"39.746634,-74.370289",http://ethnicnj.com/bourdains-new-jersey-the-restaurants/,39.746634,-74.370289,"Season 1 | Ep. 3 | Warren Grove, United States",USA
No Reservations,1,3,New Jersey,Asbury Park,United States,NJ,"40.220391,-74.012082",http://ethnicnj.com/bourdains-new-jersey-the-restaurants/,40.220391,-74.012082,"Season 1 | Ep. 3 | Asbury Park, United States",USA
No Reservations,1,4,Vietnam: The Island of Mr. Sang,Hanoi,Vietnam,NA,"21.027764,105.834160",https://en.wikipedia.org/wiki/Anthony_Bourdain:_No_Reservations,21.027764,105.83416,"Season 1 | Ep. 4 | Hanoi, Vietnam",Vietnam
No Reservations,1,4,Vietnam: The Island of Mr. Sang,Mai Châu,Vietnam,NA,"20.690134,105.008989",https://en.wikipedia.org/wiki/Anthony_Bourdain:_No_Reservations,20.690134,105.008989,"Season 1 | Ep. 4 | Mai Châu, Vietnam",Vietnam
No Reservations,1,4,Vietnam: The Island of Mr. Sang,Tuần Châu,Vietnam,NA,"20.927450,106.986038",https://en.wikipedia.org/wiki/Anthony_Bourdain:_No_Reservations,20.92745,106.986038,"Season 1 | Ep. 4 | Tuần Châu, Vietnam",Vietnam
No Reservations,1,5,Malaysia: Into the Jungle,Kuala Lumpur,Malaysia,NA,"3.139003,101.686855",https://en.wikipedia.org/wiki/Anthony_Bourdain:_No_Reservations,3.139003,101.686855,"Season 1 | Ep. 5 | Kuala Lumpur, Malaysia",Malaysia
No Reservations,1,6,Sicily,"Parlermo, Sicily",Italy,NA,"38.115688,13.361267",https://www.imdb.com/title/tt0513622/locations?ref_=tt_dt_dt,38.115688,13.361267,"Season 1 | Ep. 6 | Parlermo, Sicily, Italy",Italy
No Reservations,1,6,Sicily,"Trapani, Sicily",Italy,NA,"38.017618,12.537202",https://www.imdb.com/title/tt0513622/locations?ref_=tt_dt_dt,38.017618,12.537202,"Season 1 | Ep. 6 | Trapani, Sicily, Italy",Italy
No Reservations,1,6,Sicily,"Agrigento, Sicily",Italy,NA,"37.309407,13.585982",https://www.imdb.com/title/tt0513622/locations?ref_=tt_dt_dt,37.309407,13.585982,"Season 1 | Ep. 6 | Agrigento, Sicily, Italy",Italy
No Reservations,1,6,Sicily,"Taormina, Sicily",Italy,NA,"37.851637,15.285313",https://www.imdb.com/title/tt0513622/locations?ref_=tt_dt_dt,37.851637,15.285313,"Season 1 | Ep. 6 | Taormina, Sicily, Italy",Italy
No Reservations,1,6,Sicily,"Catania, Sicily",Italy,NA,"37.507877,15.083030",https://www.imdb.com/title/tt0513622/locations?ref_=tt_dt_dt,37.507877,15.08303,"Season 1 | Ep. 6 | Catania, Sicily, Italy",Italy
No Reservations,1,7,Las Vegas,Las Vegas,United States,Nevada,"36.169941,-115.139830",https://en.wikipedia.org/wiki/Anthony_Bourdain:_No_Reservations,36.169941,-115.13983,"Season 1 | Ep. 7 | Las Vegas, United States",USA
No Reservations,1,8,Uzbekistan,Samarkand,Uzbekistan,NA,"39.627012,66.974973",https://en.wikipedia.org/wiki/Anthony_Bourdain:_No_Reservations,39.627012,66.974973,"Season 1 | Ep. 8 | Samarkand, Uzbekistan",Uzbekistan
No Reservations,1,8,Uzbekistan,Tashkent,Uzbekistan,NA,"41.299496,69.240073",https://en.wikipedia.org/wiki/Anthony_Bourdain:_No_Reservations,41.299496,69.240073,"Season 1 | Ep. 8 | Tashkent, Uzbekistan",Uzbekistan
No Reservations,1,9,New Zealand: Down Under the Down Under,Christchurch,New Zealand,NA,"-43.532054,172.636225",https://en.wikipedia.org/wiki/Anthony_Bourdain:_No_Reservations,-43.532054,172.636225,"Season 1 | Ep. 9 | Christchurch, New Zealand",New Zealand
No Reservations,2,1,Asia Special: China & Japan,Osaka,Japan,NA,"34.693738,135.502165",https://en.wikipedia.org/wiki/Anthony_Bourdain:_No_Reservations,34.693738,135.502165,"Season 2 | Ep. 1 | Osaka, Japan",Japan
No Reservations,2,1,Asia Special: China & Japan,Kisoji,Japan,NA,"36.074885,138.089862",https://en.wikipedia.org/wiki/Anthony_Bourdain:_No_Reservations,36.074885,138.089862,"Season 2 | Ep. 1 | Kisoji, Japan",Japan
No Reservations,2,1,Asia Special: China & Japan,Xi’an,China,NA,"34.341574,108.939770",https://en.wikipedia.org/wiki/Anthony_Bourdain:_No_Reservations,34.341574,108.93977,"Season 2 | Ep. 1 | Xi’an, China",China
No Reservations,2,1,Asia Special: China & Japan,Beijing,China,NA,"39.904200,116.407396",https://en.wikipedia.org/wiki/Anthony_Bourdain:_No_Reservations,39.9042,116.407396,"Season 2 | Ep. 1 | Beijing, China",China
No Reservations,2,1,Asia Special: China & Japan,Chengdu,China,NA,"30.572815,104.066801",https://en.wikipedia.org/wiki/Anthony_Bourdain:_No_Reservations,30.572815,104.066801,"Season 2 | Ep. 1 | Chengdu, China",China
No Reservations,2,2,South Florida,Miami,United States,Florida,"25.761680,-80.191790",https://en.wikipedia.org/wiki/Anthony_Bourdain:_No_Reservations,25.76168,-80.19179,"Season 2 | Ep. 2 | Miami, United States",USA
No Reservations,2,2,South Florida,Key West,United States,Florida,"24.555059,-81.779987",https://en.wikipedia.org/wiki/Anthony_Bourdain:_No_Reservations,24.555059,-81.779987,"Season 2 | Ep. 2 | Key West, United States",USA
No Reservations,2,3,Peru,Lima,Peru,NA,"-12.046373,-77.042754",https://en.wikipedia.org/wiki/Anthony_Bourdain:_No_Reservations,-12.046373000000001,-77.042754,"Season 2 | Ep. 3 | Lima, Peru",Peru
No Reservations,2,3,Peru,Tambopata,Peru,NA,"-12.582529,-69.193276",https://en.wikipedia.org/wiki/Anthony_Bourdain:_No_Reservations,-12.582529,-69.193276,"Season 2 | Ep. 3 | Tambopata, Peru",Peru
No Reservations,2,3,Peru,Cusco,Peru,NA,"-13.531950,-71.967463",https://en.wikipedia.org/wiki/Anthony_Bourdain:_No_Reservations,-13.53195,-71.967463,"Season 2 | Ep. 3 | Cusco, Peru",Peru
No Reservations,2,3,Peru,Machu Picchu,Peru,NA,"-13.163141,-72.544963",https://en.wikipedia.org/wiki/Anthony_Bourdain:_No_Reservations,-13.163141,-72.544963,"Season 2 | Ep. 3 | Machu Picchu, Peru",Peru
No Reservations,2,4,Peru,"Montreal, Quebec",Canada,NA,"45.501689,-73.567256",https://en.wikipedia.org/wiki/Anthony_Bourdain:_No_Reservations,45.501689,-73.567256,"Season 2 | Ep. 4 | Montreal, Quebec, Canada",Canada
No Reservations,2,4,Quebec,"Marieville, Quebec",Canada,NA,"45.432629,-73.160204",https://en.wikipedia.org/wiki/Anthony_Bourdain:_No_Reservations,45.432629,-73.160204,"Season 2 | Ep. 4 | Marieville, Quebec, Canada",Canada
No Reservations,2,4,Quebec,"Rigaud, Quebec",Canada,NA,"45.483074,-74.282199",https://en.wikipedia.org/wiki/Anthony_Bourdain:_No_Reservations,45.483074,-74.282199,"Season 2 | Ep. 4 | Rigaud, Quebec, Canada",Canada
No Reservations,2,4,Quebec,"Inukjuak, Quebec",Canada,NA,"58.455121,-78.105103",https://www.imdb.com/title/tt0933410/locations?ref_=tt_dt_dt,58.455121,-78.105103,"Season 2 | Ep. 4 | Inukjuak, Quebec, Canada",Canada
No Reservations,2,5,Sweden,Stockholm,Sweden,NA,"59.329323,18.068581",https://en.wikipedia.org/wiki/Anthony_Bourdain:_No_Reservations,59.329323,18.068581,"Season 2 | Ep. 5 | Stockholm, Sweden",Sweden
No Reservations,2,6,Puerto Rico,"Cayey, Puerto Rico",United States,NA,"18.111905,-66.166000",https://www.imdb.com/title/tt0933412/locations?ref_=tt_dt_dt,18.111905,-66.166,"Season 2 | Ep. 6 | Cayey, Puerto Rico, United States",USA
No Reservations,2,6,Puerto Rico,"Ponce, Puerto Rico",United States,NA,"18.011077,-66.614062",https://www.imdb.com/title/tt0933412/locations?ref_=tt_dt_dt,18.011077,-66.614062,"Season 2 | Ep. 6 | Ponce, Puerto Rico, United States",USA
No Reservations,2,6,Puerto Rico,"Bayam, Puerto Rico",United States,NA,"18.220833,-66.590149",https://www.imdb.com/title/tt0933412/locations?ref_=tt_dt_dt,18.220833,-66.590149,"Season 2 | Ep. 6 | Bayam, Puerto Rico, United States",USA
No Reservations,2,6,Puerto Rico,"San Juan, Puerto Rico",United States,NA,"18.465539,-66.105735",https://www.imdb.com/title/tt0933412/locations?ref_=tt_dt_dt,18.465539,-66.105735,"Season 2 | Ep. 6 | San Juan, Puerto Rico, United States",USA
No Reservations,2,6,Puerto Rico,"Isabela, Puerto Rico",United States,NA,"18.470386,-67.024206",https://www.imdb.com/title/tt0933412/locations?ref_=tt_dt_dt,18.470386,-67.024206,"Season 2 | Ep. 6 | Isabela, Puerto Rico, United States",USA
No Reservations,2,6,Puerto Rico,"Vega Baja, Puerto Rico",United States,NA,"18.446922,-66.397314",https://www.imdb.com/title/tt0933412/locations?ref_=tt_dt_dt,18.446922,-66.397314,"Season 2 | Ep. 6 | Vega Baja, Puerto Rico, United States",USA
No Reservations,2,6,Puerto Rico,"Caguas, Puerto Rico",United States,NA,"18.238799,-66.035249",https://www.imdb.com/title/tt0933412/locations?ref_=tt_dt_dt,18.238799,-66.035249,"Season 2 | Ep. 6 | Caguas, Puerto Rico, United States",USA
No Reservations,2,7,Japan,Osaka,Japan,NA,"34.693738,135.502165",https://en.wikipedia.org/wiki/Anthony_Bourdain:_No_Reservations,34.693738,135.502165,"Season 2 | Ep. 7 | Osaka, Japan",Japan
No Reservations,2,8,US/Mexico Border,Del Rio,United States,Texas,"29.370886,-100.895867",https://www.imdb.com/title/tt0988175/locations?ref_=tt_dt_dt,29.370886,-100.895867,"Season 2 | Ep. 8 | Del Rio, United States",USA
No Reservations,2,8,US/Mexico Border,Rio Grande,United States,Texas,"26.379787,-98.820305",https://www.imdb.com/title/tt0988175/locations?ref_=tt_dt_dt,26.379787,-98.820305,"Season 2 | Ep. 8 | Rio Grande, United States",USA
No Reservations,2,8,US/Mexico Border,Monterrey,Mexico,NA,"25.686614,-100.316113",https://www.imdb.com/title/tt0988175/locations?ref_=tt_dt_dt,25.686614,-100.316113,"Season 2 | Ep. 8 | Monterrey, Mexico",Mexico
No Reservations,2,8,US/Mexico Border,Tamaulipas,Mexico,NA,"24.266940,-98.836275",https://www.imdb.com/title/tt0988175/locations?ref_=tt_dt_dt,24.26694,-98.836275,"Season 2 | Ep. 8 | Tamaulipas, Mexico",Mexico
No Reservations,2,8,US/Mexico Border,Coahuíla,Mexico,NA,"27.058676,-101.706829",https://www.imdb.com/title/tt0988175/locations?ref_=tt_dt_dt,27.058676,-101.706829,"Season 2 | Ep. 8 | Coahuíla, Mexico",Mexico
No Reservations,2,8,US/Mexico Border,Laredo,United States,Texas,"27.530567,-99.480324",https://www.imdb.com/title/tt0988175/locations?ref_=tt_dt_dt,27.530567,-99.480324,"Season 2 | Ep. 8 | Laredo, United States",USA
No Reservations,2,8,US/Mexico Border,Eagle Pass,United States,Texas,"28.709143,-100.499521",https://www.imdb.com/title/tt0988175/locations?ref_=tt_dt_dt,28.709143,-100.499521,"Season 2 | Ep. 8 | Eagle Pass, United States",USA
No Reservations,2,9,India (Rajasthan),Udaipur,India,NA,"24.585445,73.712479",https://en.wikipedia.org/wiki/Anthony_Bourdain:_No_Reservations,24.585445,73.712479,"Season 2 | Ep. 9 | Udaipur, India",India
No Reservations,2,9,India (Rajasthan),Jodhpur,India,NA,"26.238947,73.024309",https://en.wikipedia.org/wiki/Anthony_Bourdain:_No_Reservations,26.238947,73.024309,"Season 2 | Ep. 9 | Jodhpur, India",India
No Reservations,2,9,India (Rajasthan),Jaisalmer,India,NA,"26.915749,70.908344",https://en.wikipedia.org/wiki/Anthony_Bourdain:_No_Reservations,26.915749,70.908344,"Season 2 | Ep. 9 | Jaisalmer, India",India
No Reservations,2,10,India (Kolkata/Mumbai),Kolkata,India,NA,"22.572646,88.363895",https://en.wikipedia.org/wiki/Anthony_Bourdain:_No_Reservations,22.572646,88.363895,"Season 2 | Ep. 10 | Kolkata, India",India
No Reservations,2,10,India (Kolkata/Mumbai),Mumbai,India,NA,"19.075984,72.877656",https://en.wikipedia.org/wiki/Anthony_Bourdain:_No_Reservations,19.075984,72.877656,"Season 2 | Ep. 10 | Mumbai, India",India
No Reservations,2,11,Korea,Seoul,South Korea,NA,"37.566535,126.977969",https://en.wikipedia.org/wiki/Anthony_Bourdain:_No_Reservations,37.566535,126.977969,"Season 2 | Ep. 11 | Seoul, South Korea",South Korea
No Reservations,2,12,Indonesia,Bali,Indonesia,NA,"-8.409518,115.188916",https://en.wikipedia.org/wiki/Anthony_Bourdain:_No_Reservations,-8.409518,115.188916,"Season 2 | Ep. 12 | Bali, Indonesia",Indonesia
No Reservations,2,12,Indonesia,Jakarta,Indonesia,NA,"-6.175110,106.865039",https://en.wikipedia.org/wiki/Anthony_Bourdain:_No_Reservations,-6.17511,106.865039,"Season 2 | Ep. 12 | Jakarta, Indonesia",Indonesia
No Reservations,2,13,Special: Decoding Ferran Adria,Barcelona,Spain,NA,"41.385064,2.173403",https://www.travelchannel.com/shows/anthony-bourdain/episodes/anthony-bourdain-no-reservations-decoding-ferran-adria,41.385064,2.173403,"Season 2 | Ep. 13 | Barcelona, Spain",Spain
No Reservations,2,14,Special: Anthony Bourdain in Beirut,Beirut,Lebanon,NA,"33.893791,35.501777",https://en.wikipedia.org/wiki/Anthony_Bourdain:_No_Reservations,33.893791,35.501777,"Season 2 | Ep. 14 | Beirut, Lebanon",Lebanon
No Reservations,3,1,Ireland,Dublin,Ireland,NA,"53.349805,-6.260310",https://en.wikipedia.org/wiki/Anthony_Bourdain:_No_Reservations,53.349805,-6.26031,"Season 3 | Ep. 1 | Dublin, Ireland",Ireland
No Reservations,3,1,Ireland,Belfast,Ireland,NA,"54.597285,-5.930120",https://en.wikipedia.org/wiki/Anthony_Bourdain:_No_Reservations,54.597285,-5.93012,"Season 3 | Ep. 1 | Belfast, Ireland",Ireland
No Reservations,3,2,Ghana,Accra,Ghana,NA,"5.603717,-0.186964",https://www.imdb.com/title/tt0943556/locations?ref_=tt_dt_dt,5.603717,-0.186964,"Season 3 | Ep. 2 | Accra, Ghana",Ghana
No Reservations,3,2,Ghana,Ashanti,Ghana,NA,"6.747044,-1.520862",https://www.imdb.com/title/tt0943556/locations?ref_=tt_dt_dt,6.747044,-1.520862,"Season 3 | Ep. 2 | Ashanti, Ghana",Ghana
No Reservations,3,2,Ghana,Nzulezo,Ghana,NA,"5.020827,-2.597921",https://www.imdb.com/title/tt0943556/locations?ref_=tt_dt_dt,5.020827,-2.597921,"Season 3 | Ep. 2 | Nzulezo, Ghana",Ghana
No Reservations,3,2,Ghana,Mole Game Reserve,Ghana,NA,"9.500000,-2.000000",https://www.imdb.com/title/tt0943556/locations?ref_=tt_dt_dt,9.5,-2,"Season 3 | Ep. 2 | Mole Game Reserve, Ghana",Ghana
No Reservations,3,2,Ghana,Adanwomase,Ghana,NA,"6.831355,-1.462624",https://www.imdb.com/title/tt0943556/locations?ref_=tt_dt_dt,6.831355,-1.462624,"Season 3 | Ep. 2 | Adanwomase, Ghana",Ghana
No Reservations,3,2,Ghana,Beyin,Ghana,NA,"4.988470,-2.590404",https://www.imdb.com/title/tt0943556/locations?ref_=tt_dt_dt,4.98847,-2.590404,"Season 3 | Ep. 2 | Beyin, Ghana",Ghana
No Reservations,3,3,Pacific Northwest,Portland,Oregon,NA,"45.512231,-122.658719",https://www.imdb.com/title/tt0943559/locations?ref_=tt_dt_dt,45.512231,-122.658719,"Season 3 | Ep. 3 | Portland, Oregon",USA
No Reservations,3,3,Pacific Northwest,Seattle,Washington,NA,"47.606209,-122.332071",https://www.imdb.com/title/tt0943559/locations?ref_=tt_dt_dt,47.606209,-122.332071,"Season 3 | Ep. 3 | Seattle, Washington",USA
No Reservations,3,3,Pacific Northwest,Shelton,Washington,NA,"47.215094,-123.100707",https://www.imdb.com/title/tt0943559/locations?ref_=tt_dt_dt,47.215094,-123.100707,"Season 3 | Ep. 3 | Shelton, Washington",USA
No Reservations,3,4,Namibia,Walvis Bay,Namibia,NA,"-22.958408,14.505751",https://www.imdb.com/title/tt0943558/locations?ref_=tt_dt_dt,-22.958408,14.505751,"Season 3 | Ep. 4 | Walvis Bay, Namibia",Namibia
No Reservations,3,4,Namibia,Windhoek,Namibia,NA,"-22.560881,17.065755",https://www.imdb.com/title/tt0943558/locations?ref_=tt_dt_dt,-22.560881,17.065755,"Season 3 | Ep. 4 | Windhoek, Namibia",Namibia
No Reservations,3,4,Namibia,Katutura,Namibia,NA,"-22.521134,17.059849",https://www.imdb.com/title/tt0943558/locations?ref_=tt_dt_dt,-22.521134,17.059849,"Season 3 | Ep. 4 | Katutura, Namibia",Namibia
No Reservations,3,4,Namibia,Khomas,Namibia,NA,"-22.637785,17.101193",https://www.imdb.com/title/tt0943558/locations?ref_=tt_dt_dt,-22.637785,17.101193,"Season 3 | Ep. 4 | Khomas, Namibia",Namibia
No Reservations,3,5,Russia,Moscow,Russia,NA,"55.755826,37.617300",https://en.wikipedia.org/wiki/Anthony_Bourdain:_No_Reservations,55.755826,37.6173,"Season 3 | Ep. 5 | Moscow, Russia",Russia
No Reservations,3,6,Los Angeles,Los Angeles,United States,California,"34.052234,-118.243685",https://en.wikipedia.org/wiki/Anthony_Bourdain:_No_Reservations,34.052234,-118.243685,"Season 3 | Ep. 6 | Los Angeles, United States",USA
No Reservations,3,7,From Shanghai to Shangri-la,Shanghai,China,NA,"31.230390,121.473702",https://en.wikipedia.org/wiki/Anthony_Bourdain:_No_Reservations,31.23039,121.473702,"Season 3 | Ep. 7 | Shanghai, China",China
No Reservations,3,7,From Shanghai to Shangri-la,Dali,China,NA,"25.606486,100.267638",https://en.wikipedia.org/wiki/Anthony_Bourdain:_No_Reservations,25.606486,100.267638,"Season 3 | Ep. 7 | Dali, China",China
No Reservations,3,7,From Shanghai to Shangri-la,Lijiang,China,NA,"26.855047,100.227750",https://en.wikipedia.org/wiki/Anthony_Bourdain:_No_Reservations,26.855047,100.22775,"Season 3 | Ep. 7 | Lijiang, China",China
No Reservations,3,7,From Shanghai to Shangri-la,Zhangdian,China,NA,"36.806669,118.017938",https://en.wikipedia.org/wiki/Anthony_Bourdain:_No_Reservations,36.806669,118.017938,"Season 3 | Ep. 7 | Zhangdian, China",China
No Reservations,3,8,New York City,New York,United States,New York,"40.712775,-74.005973",https://en.wikipedia.org/wiki/Anthony_Bourdain:_No_Reservations,40.712775,-74.005973,"Season 3 | Ep. 8 | New York, United States",USA
No Reservations,3,9,Brazil,São Paulo,Brazil,NA,"-23.550520,-46.633309",https://en.wikipedia.org/wiki/Anthony_Bourdain:_No_Reservations,-23.55052,-46.633309,"Season 3 | Ep. 9 | São Paulo, Brazil",Brazil
No Reservations,3,10,French Polynesia,Tahiti,French Polynesia,NA,"-17.650920,-149.426042",https://en.wikipedia.org/wiki/Anthony_Bourdain:_No_Reservations,-17.65092,-149.426042,"Season 3 | Ep. 10 | Tahiti, French Polynesia",French Polynesia
No Reservations,3,10,French Polynesia,Tuamotu Archipelago,French Polynesia,NA,"-18.615949,-138.719142",https://en.wikipedia.org/wiki/Anthony_Bourdain:_No_Reservations,-18.615949,-138.719142,"Season 3 | Ep. 10 | Tuamotu Archipelago, French Polynesia",French Polynesia
No Reservations,3,10,French Polynesia,Marquesas Islands,French Polynesia,NA,"-9.781216,-139.081712",https://en.wikipedia.org/wiki/Anthony_Bourdain:_No_Reservations,-9.781216,-139.081712,"Season 3 | Ep. 10 | Marquesas Islands, French Polynesia",French Polynesia
No Reservations,3,11,Cleveland,Cleveland,United States,Ohio,"41.499320,-81.694361",https://en.wikipedia.org/wiki/Anthony_Bourdain:_No_Reservations,41.49932,-81.694361,"Season 3 | Ep. 11 | Cleveland, United States",USA
No Reservations,3,12,Hong Kong,Hong Kong,China,NA,"22.396428,114.109497",https://en.wikipedia.org/wiki/Anthony_Bourdain:_No_Reservations,22.396428,114.109497,"Season 3 | Ep. 12 | Hong Kong, China",China
No Reservations,3,13,Argentina,Buenos Aires,Argentina,NA,"-34.603684,-58.381559",https://en.wikipedia.org/wiki/Anthony_Bourdain:_No_Reservations,-34.603684,-58.381559,"Season 3 | Ep. 13 | Buenos Aires, Argentina",Argentina
No Reservations,3,14,South Carolina,Charleston,United States,South Carolina,"32.776475,-79.931051",Could have been more cities,32.776475,-79.931051,"Season 3 | Ep. 14 | Charleston, United States",USA
No Reservations,3,15,Tuscany,Tuscany,Italy,NA,"43.771051,11.248621",https://en.wikipedia.org/wiki/Anthony_Bourdain:_No_Reservations,43.771051,11.248621,"Season 3 | Ep. 15 | Tuscany, Italy",Italy
No Reservations,3,16,Holiday Special,New York City,USA,Connecticut,"41.394817,-73.454011",http://www2.readingeagle.com/article.aspx?id=70789,40.7127753,-74.0059728,"Season 3 | Ep. 16 | New York City, USA",USA
No Reservations,4,1,Singapore,Singapore,Singapore,NA,"1.352083,103.819836",https://en.wikipedia.org/wiki/Anthony_Bourdain:_No_Reservations,1.352083,103.819836,"Season 4 | Ep. 1 | Singapore, Singapore",Singapore
No Reservations,4,2,Berlin,Berlin,Germany,NA,"52.520007,13.404954",https://en.wikipedia.org/wiki/Anthony_Bourdain:_No_Reservations,52.520007,13.404954,"Season 4 | Ep. 2 | Berlin, Germany",Germany
No Reservations,4,3,"Vancouver, BC","Vancouver, British Columbia",Canada,NA,"49.282729,-123.120738",https://en.wikipedia.org/wiki/Anthony_Bourdain:_No_Reservations,49.282729,-123.120738,"Season 4 | Ep. 3 | Vancouver, British Columbia, Canada",Canada
No Reservations,4,4,Greek Islands,Crete,Greece,NA,"35.240117,24.809269",https://www.imdb.com/title/tt1189463/locations?ref_=tt_dt_dt,35.240117,24.809269,"Season 4 | Ep. 4 | Crete, Greece",Greece
No Reservations,4,4,Greek Islands,Zakynthos,Greece,NA,"37.787033,20.899876",https://www.imdb.com/title/tt1189463/locations?ref_=tt_dt_dt,37.787033,20.899876,"Season 4 | Ep. 4 | Zakynthos, Greece",Greece
No Reservations,4,5,New Orleans,New Orleans,United States,Louisiana,"29.951066,-90.071532",https://en.wikipedia.org/wiki/Anthony_Bourdain:_No_Reservations,29.951066,-90.071532,"Season 4 | Ep. 5 | New Orleans, United States",USA
No Reservations,4,6,London/Edinburgh,London,"England, United Kingdom",NA,"51.507351,-0.127758",https://en.wikipedia.org/wiki/Anthony_Bourdain:_No_Reservations,51.507351,-0.127758,"Season 4 | Ep. 6 | London, England, United Kingdom",England
No Reservations,4,6,London/Edinburgh,Edinburgh,"Scotland, United Kingdom",NA,"55.953252,-3.188267",https://en.wikipedia.org/wiki/Anthony_Bourdain:_No_Reservations,55.953252,-3.188267,"Season 4 | Ep. 6 | Edinburgh, Scotland, United Kingdom",Scotland
No Reservations,4,7,Jamaica,Kingston,Jamaica,NA,"18.017874,-76.809904",https://en.wikipedia.org/wiki/Anthony_Bourdain:_No_Reservations,18.017874,-76.809904,"Season 4 | Ep. 7 | Kingston, Jamaica",Jamaica
No Reservations,4,8,Romania,Bucharest,Romania,NA,"44.426767,26.102538",https://www.imdb.com/title/tt1189467/locations?ref_=tt_dt_dt,44.426767,26.102538,"Season 4 | Ep. 8 | Bucharest, Romania",Romania
No Reservations,4,8,Romania,Brașov,Romania,NA,"45.657975,25.601198",https://www.imdb.com/title/tt1189467/locations?ref_=tt_dt_dt,45.657975,25.601198,"Season 4 | Ep. 8 | Brașov, Romania",Romania
No Reservations,4,9,Hawaii,Honolulu,United States,Hawaii,"21.306944,-157.858333",https://www.imdb.com/title/tt1189464/locations?ref_=tt_dt_dt,21.306944,-157.858333,"Season 4 | Ep. 9 | Honolulu, United States",USA
No Reservations,4,9,Hawaii,"North Shore, O'ahu",United States,Hawaii,"21.561657,-158.071598",https://www.imdb.com/title/tt1189464/locations?ref_=tt_dt_dt,21.561657,-158.071598,"Season 4 | Ep. 9 | North Shore, Oahu, United States",USA
No Reservations,4,9,Hawaii,"Kapolei, O'ahu",United States,Hawaii,"21.335391,-158.056896",https://www.imdb.com/title/tt1189464/locations?ref_=tt_dt_dt,21.335391,-158.056896,"Season 4 | Ep. 9 | Kapolei, Oahu, United States",USA
No Reservations,4,9,Hawaii,Koloa,United States,Hawaii,"21.906667,-159.469167",https://www.imdb.com/title/tt1189464/locations?ref_=tt_dt_dt,21.906667,-159.469167,"Season 4 | Ep. 9 | Koloa, United States",USA
No Reservations,4,10,Into the Fire NY,"Manhattan, New York",United States,New York,"40.783060,-73.971249",https://en.wikipedia.org/wiki/Anthony_Bourdain:_No_Reservations,40.78306,-73.971249,"Season 4 | Ep. 10 | Manhattan, New York, United States",USA
No Reservations,4,11,Laos,Vientiane,Laos,NA,"17.975706,102.633104",https://en.wikipedia.org/wiki/Anthony_Bourdain:_No_Reservations,17.975706,102.633104,"Season 4 | Ep. 11 | Vientiane, Laos",Laos
No Reservations,4,12,Colombia,Medellín,Colombia,NA,"6.244203,-75.581212",https://en.wikipedia.org/wiki/Anthony_Bourdain:_No_Reservations,6.244203,-75.581212,"Season 4 | Ep. 12 | Medellín, Colombia",Colombia
No Reservations,4,12,Colombia,Cartagena,Colombia,NA,"10.391049,-75.479426",https://en.wikipedia.org/wiki/Anthony_Bourdain:_No_Reservations,10.391049,-75.479426,"Season 4 | Ep. 12 | Cartagena, Colombia",Colombia
No Reservations,4,13,Saudi Arabia,Jeddah,Saudi Arabia,NA,"21.485811,39.192505",https://en.wikipedia.org/wiki/Anthony_Bourdain:_No_Reservations,21.485811000000002,39.192505,"Season 4 | Ep. 13 | Jeddah, Saudi Arabia",Saudi Arabia
No Reservations,4,14,Uruguay,Montevideo,Uruguay,NA,"-34.901113,-56.164531",https://www.imdb.com/title/tt1277182/locations?ref_=tt_dt_dt,-34.901113,-56.164531,"Season 4 | Ep. 14 | Montevideo, Uruguay",Uruguay
No Reservations,4,14,Uruguay,Garzón,Uruguay,NA,"-34.593287,-54.543036",https://www.imdb.com/title/tt1277182/locations?ref_=tt_dt_dt,-34.593287,-54.543036,"Season 4 | Ep. 14 | Garzón, Uruguay",Uruguay
No Reservations,4,14,Uruguay,Lavalleja,Uruguay,NA,"-34.374324,-55.237146",https://www.imdb.com/title/tt1277182/locations?ref_=tt_dt_dt,-34.374324,-55.237146,"Season 4 | Ep. 14 | Lavalleja, Uruguay",Uruguay
No Reservations,4,14,Uruguay,Maldonado,Uruguay,NA,"-34.905408,-54.950171",https://www.imdb.com/title/tt1277182/locations?ref_=tt_dt_dt,-34.905408,-54.950171,"Season 4 | Ep. 14 | Maldonado, Uruguay",Uruguay
No Reservations,4,14,Uruguay,Jose Ignacio,Uruguay,NA,"-34.835915,-54.645146",https://www.imdb.com/title/tt1277182/locations?ref_=tt_dt_dt,-34.835915,-54.645146,"Season 4 | Ep. 14 | Jose Ignacio, Uruguay",Uruguay
No Reservations,4,14,Uruguay,Cabo Polonio,Uruguay,NA,"-34.402302,-53.794941",https://www.imdb.com/title/tt1277182/locations?ref_=tt_dt_dt,-34.402302,-53.794941,"Season 4 | Ep. 14 | Cabo Polonio, Uruguay",Uruguay
No Reservations,4,15,U.S. Southwest,Amarillo,United States,Texas,"35.221997,-101.831297",https://www.imdb.com/title/tt1591672/locations?ref_=tt_dt_dt,35.221997,-101.831297,"Season 4 | Ep. 15 | Amarillo, United States",USA
No Reservations,4,15,U.S. Southwest,Indio,United States,California,"33.720577,-116.215562",https://www.imdb.com/title/tt1591672/locations?ref_=tt_dt_dt,33.720577,-116.215562,"Season 4 | Ep. 15 | Indio, United States",USA
No Reservations,4,15,U.S. Southwest,Abiquiu,United States,New Mexico,"36.207241,-106.318640",https://www.imdb.com/title/tt1591672/locations?ref_=tt_dt_dt,36.207241,-106.31864,"Season 4 | Ep. 15 | Abiquiu, United States",USA
No Reservations,4,15,U.S. Southwest,Green Valley,United States,Arizona,"31.854251,-110.993702",https://www.imdb.com/title/tt1591672/locations?ref_=tt_dt_dt,31.854251,-110.993702,"Season 4 | Ep. 15 | Green Valley, United States",USA
No Reservations,4,15,U.S. Southwest,Salton Sea,United States,California,"33.328618,-115.843412",https://www.imdb.com/title/tt1591672/locations?ref_=tt_dt_dt,33.328618,-115.843412,"Season 4 | Ep. 15 | Salton Sea, United States",USA
No Reservations,4,15,U.S. Southwest,Niland,United States,California,"33.240037,-115.518876",https://www.imdb.com/title/tt1591672/locations?ref_=tt_dt_dt,33.240037,-115.518876,"Season 4 | Ep. 15 | Niland, United States",USA
No Reservations,4,15,U.S. Southwest,Woodway,United States,Texas,"31.506000,-97.205006",https://www.imdb.com/title/tt1591672/locations?ref_=tt_dt_dt,31.506,-97.205006,"Season 4 | Ep. 15 | Woodway, United States",USA
No Reservations,4,15,U.S. Southwest,Hatch,United States,New Mexico,"32.665357,-107.153074",https://www.imdb.com/title/tt1591672/locations?ref_=tt_dt_dt,32.665357,-107.153074,"Season 4 | Ep. 15 | Hatch, United States",USA
No Reservations,4,15,U.S. Southwest,Phoenix,United States,Arizona,"33.448377,-112.074037",https://www.imdb.com/title/tt1591672/locations?ref_=tt_dt_dt,33.448377,-112.074037,"Season 4 | Ep. 15 | Phoenix, United States",USA
No Reservations,4,15,U.S. Southwest,Palm Springs,United States,California,"33.830296,-116.545292",https://www.imdb.com/title/tt1591672/locations?ref_=tt_dt_dt,33.830296,-116.545292,"Season 4 | Ep. 15 | Palm Springs, United States",USA
No Reservations,4,15,U.S. Southwest,Bombay Beach,United States,California,"33.350867,-115.729715",https://www.imdb.com/title/tt1591672/locations?ref_=tt_dt_dt,33.350867,-115.729715,"Season 4 | Ep. 15 | Bombay Beach, United States",USA
No Reservations,4,15,U.S. Southwest,Waco,United States,Texas,"31.549333,-97.146670",https://www.imdb.com/title/tt1591672/locations?ref_=tt_dt_dt,31.549333,-97.14667,"Season 4 | Ep. 15 | Waco, United States",USA
No Reservations,4,16,Tokyo,Tokyo,Japan,NA,"35.689487,139.691706",https://en.wikipedia.org/wiki/Anthony_Bourdain:_No_Reservations,35.689487,139.691706,"Season 4 | Ep. 16 | Tokyo, Japan",Japan
No Reservations,4,17,Spain,Catalonia,Spain,NA,"41.591159,1.520862",https://en.wikipedia.org/wiki/Anthony_Bourdain:_No_Reservations,41.591159,1.520862,"Season 4 | Ep. 17 | Catalonia, Spain",Spain
No Reservations,4,17,Spain,San Sebastian,Spain,NA,"43.318334,-1.981231",https://en.wikipedia.org/wiki/Anthony_Bourdain:_No_Reservations,43.318334,-1.981231,"Season 4 | Ep. 17 | San Sebastian, Spain",Spain
No Reservations,4,17,Spain,Barcelona,Spain,NA,"41.385064,2.173403",https://en.wikipedia.org/wiki/Anthony_Bourdain:_No_Reservations,41.385064,2.173403,"Season 4 | Ep. 17 | Barcelona, Spain",Spain
No Reservations,4,17,Spain,Basque Country,Spain,NA,"42.989625,-2.618927",https://en.wikipedia.org/wiki/Anthony_Bourdain:_No_Reservations,42.989625,-2.618927,"Season 4 | Ep. 17 | Basque Country, Spain",Spain
No Reservations,4,18,Egypt,Seds,Egypt,NA,"30.063678,31.219527",https://en.wikipedia.org/wiki/Anthony_Bourdain:_No_Reservations,30.063678,31.219527,"Season 4 | Ep. 18 | Seds, Egypt",Egypt
No Reservations,4,18,Egypt,Cairo,Egypt,NA,"30.044420,31.235712",https://en.wikipedia.org/wiki/Anthony_Bourdain:_No_Reservations,30.04442,31.235712,"Season 4 | Ep. 18 | Cairo, Egypt",Egypt
No Reservations,4,18,Egypt,Luxor,Egypt,NA,"25.687243,32.639636",https://en.wikipedia.org/wiki/Anthony_Bourdain:_No_Reservations,25.687243,32.639636,"Season 4 | Ep. 18 | Luxor, Egypt",Egypt
No Reservations,4,19,"So Long, Summer","Manhattan, New York",United States,New York,"40.783060,-73.971249",https://en.wikipedia.org/wiki/Anthony_Bourdain:_No_Reservations,40.78306,-73.971249,"Season 4 | Ep. 19 | Manhattan, New York, United States",USA
No Reservations,4,20,Special: At the Table with Anthony Bourdain,"Manhattan, New York",United States,New York,"40.783060,-73.971249",https://en.wikipedia.org/wiki/Anthony_Bourdain:_No_Reservations,40.78306,-73.971249,"Season 4 | Ep. 20 | Manhattan, New York, United States",USA
No Reservations,5,1,Mexico,Puebla,Mexico,NA,"19.041440,-98.206273",https://en.wikipedia.org/wiki/Anthony_Bourdain:_No_Reservations,19.04144,-98.206273,"Season 5 | Ep. 1 | Puebla, Mexico",Mexico
No Reservations,5,1,Mexico,Mexico City,Mexico,NA,"19.432608,-99.133208",https://en.wikipedia.org/wiki/Anthony_Bourdain:_No_Reservations,19.432608,-99.133208,"Season 5 | Ep. 1 | Mexico City, Mexico",Mexico
No Reservations,5,2,Venice,Venice,Italy,NA,"45.440847,12.315515",https://en.wikipedia.org/wiki/Anthony_Bourdain:_No_Reservations,45.440847,12.315515,"Season 5 | Ep. 2 | Venice, Italy",Italy
No Reservations,5,3,"Washington, D.C.",Washington,United States,D.C.,"38.907192,-77.036871",https://en.wikipedia.org/wiki/Anthony_Bourdain:_No_Reservations,38.907192,-77.036871,"Season 5 | Ep. 3 | Washington, United States",USA
No Reservations,5,4,Azores,Azores,Portugal,NA,"37.741249,-25.675594",https://en.wikipedia.org/wiki/Anthony_Bourdain:_No_Reservations,37.741249,-25.675594,"Season 5 | Ep. 4 | Azores, Portugal",Portugal
No Reservations,5,5,Chicago,Chicago,United States,Illinois,"41.878114,-87.629798",https://en.wikipedia.org/wiki/Anthony_Bourdain:_No_Reservations,41.878114,-87.629798,"Season 5 | Ep. 5 | Chicago, United States",USA
No Reservations,5,6,Food Porn,Hanoi,Vietnam,NA,NA,https://en.wikipedia.org/wiki/Anthony_Bourdain:_No_Reservations,21.0277644,105.8341598,"Season 5 | Ep. 6 | Hanoi, Vietnam",Vietnam
No Reservations,5,7,Philippines,Manila,Philippines,NA,"14.599512,120.984219",https://en.wikipedia.org/wiki/Anthony_Bourdain:_No_Reservations,14.599512,120.984219,"Season 5 | Ep. 7 | Manila, Philippines",Philippines
No Reservations,5,7,Philippines,Pampanga,Philippines,NA,"15.079409,120.619989",https://en.wikipedia.org/wiki/Anthony_Bourdain:_No_Reservations,15.079409,120.619989,"Season 5 | Ep. 7 | Pampanga, Philippines",Philippines
No Reservations,5,7,Philippines,Cebu,Philippines,NA,"10.315699,123.885437",https://en.wikipedia.org/wiki/Anthony_Bourdain:_No_Reservations,10.315699,123.885437,"Season 5 | Ep. 7 | Cebu, Philippines",Philippines
No Reservations,5,8,Disappearing Manhattan,"Manhattan, New York",United States,New York,"40.783060,-73.971249",https://en.wikipedia.org/wiki/Anthony_Bourdain:_No_Reservations,40.78306,-73.971249,"Season 5 | Ep. 8 | Manhattan, New York, United States",USA
No Reservations,5,9,Sri Lanka,Colombo,Sri Lanka,NA,"6.927079,79.861243",https://en.wikipedia.org/wiki/Anthony_Bourdain:_No_Reservations,6.927079,79.861243,"Season 5 | Ep. 9 | Colombo, Sri Lanka",Sri Lanka
No Reservations,5,10,Vietnam: There's No Place Like Home,Ho Chi Minh City,Vietnam,NA,"10.823099,106.629664",https://www.imdb.com/title/tt1566960/locations?ref_=tt_dt_dt,10.823099,106.629664,"Season 5 | Ep. 10 | Ho Chi Minh City, Vietnam",Vietnam
No Reservations,5,10,Vietnam: There's No Place Like Home,Hội An,Vietnam,NA,"15.880058,108.338047",https://www.imdb.com/title/tt1566960/locations?ref_=tt_dt_dt,15.880058,108.338047,"Season 5 | Ep. 10 | Hội An, Vietnam",Vietnam
No Reservations,5,11,Chile,Santiago,Chile,NA,"-33.448890,-70.669265",https://en.wikipedia.org/wiki/Anthony_Bourdain:_No_Reservations,-33.44889,-70.669265,"Season 5 | Ep. 11 | Santiago, Chile",Chile
No Reservations,5,11,Chile,Patagonia,Chile,NA,"-41.810147,-68.906269",https://en.wikipedia.org/wiki/Anthony_Bourdain:_No_Reservations,-41.810147,-68.906269,"Season 5 | Ep. 11 | Patagonia, Chile",Chile
No Reservations,5,12,Australia,Melbourne,Australia,NA,"-37.813628,144.963058",https://en.wikipedia.org/wiki/Anthony_Bourdain:_No_Reservations,-37.813628,144.963058,"Season 5 | Ep. 12 | Melbourne, Australia",Australia
No Reservations,5,13,Rust Belt,Baltimore,United States,Maryland,"39.290385,-76.612189",https://en.wikipedia.org/wiki/Anthony_Bourdain:_No_Reservations,39.290385,-76.612189,"Season 5 | Ep. 13 | Baltimore, United States",USA
No Reservations,5,13,Rust Belt,Detroit,United States,Michigan,"42.331427,-83.045754",https://en.wikipedia.org/wiki/Anthony_Bourdain:_No_Reservations,42.331427,-83.045754,"Season 5 | Ep. 13 | Detroit, United States",USA
No Reservations,5,13,Rust Belt,Buffalo,United States,New York,"42.886447,-78.878369",https://en.wikipedia.org/wiki/Anthony_Bourdain:_No_Reservations,42.886447,-78.878369,"Season 5 | Ep. 13 | Buffalo, United States",USA
No Reservations,5,14,Down on the Street,New York City,USA,NA,NA,https://en.wikipedia.org/wiki/Anthony_Bourdain:_No_Reservations,40.7127753,-74.0059728,"Season 5 | Ep. 14 | New York City, USA",USA
No Reservations,5,15,San Francisco,San Francisco,United States,California,"37.774929,-122.419416",https://en.wikipedia.org/wiki/Anthony_Bourdain:_No_Reservations,37.774929,-122.419416,"Season 5 | Ep. 15 | San Francisco, United States",USA
No Reservations,5,16,Thailand,Bangkok,Thailand,NA,"13.756331,100.501765",https://en.wikipedia.org/wiki/Anthony_Bourdain:_No_Reservations,13.756331,100.501765,"Season 5 | Ep. 16 | Bangkok, Thailand",Thailand
No Reservations,5,16,Thailand,Phuket,Thailand,NA,"7.951933,98.338088",https://en.wikipedia.org/wiki/Anthony_Bourdain:_No_Reservations,7.951933,98.338088,"Season 5 | Ep. 16 | Phuket, Thailand",Thailand
No Reservations,5,17,Montana,Livingston,United States,Montana,"45.661411,-110.559956",https://www.imdb.com/title/tt1591666/?ref_=ttep_ep17,45.661411,-110.559956,"Season 5 | Ep. 17 | Livingston, United States",USA
No Reservations,5,18,Burning Questions,New York City,USA,NA,NA,https://en.wikipedia.org/wiki/Anthony_Bourdain:_No_Reservations,40.7127753,-74.0059728,"Season 5 | Ep. 18 | New York City, USA",USA
No Reservations,5,19,New York Outer Boroughs,"Staten Island, New York",United States,New York,"40.579532,-74.150201",https://en.wikipedia.org/wiki/Anthony_Bourdain:_No_Reservations,40.579532,-74.150201,"Season 5 | Ep. 19 | Staten Island, New York, United States",USA
No Reservations,5,19,New York Outer Boroughs,"Queens, New York",United States,New York,"40.728224,-73.794852",https://en.wikipedia.org/wiki/Anthony_Bourdain:_No_Reservations,40.728224,-73.794852,"Season 5 | Ep. 19 | Queens, New York, United States",USA
No Reservations,5,19,New York Outer Boroughs,"Brooklyn, New York",United States,New York,"40.678178,-73.944158",https://en.wikipedia.org/wiki/Anthony_Bourdain:_No_Reservations,40.678178,-73.944158,"Season 5 | Ep. 19 | Brooklyn, New York, United States",USA
No Reservations,5,19,New York Outer Boroughs,"The Bronx, New York",United States,New York,"40.844782,-73.864827",https://en.wikipedia.org/wiki/Anthony_Bourdain:_No_Reservations,40.844782,-73.864827,"Season 5 | Ep. 19 | The Bronx, New York, United States",USA
No Reservations,5,20,Sardinia,Sardinia,Italy,NA,"40.120875,9.012893",https://en.wikipedia.org/wiki/Anthony_Bourdain:_No_Reservations,40.120875,9.012893,"Season 5 | Ep. 20 | Sardinia, Italy",Italy
No Reservations,6,1,Panama,Panama City,Panama,NA,"8.982379,-79.519870",http://www.noreservationslocations.com/panama-episode.html,8.982379,-79.51987,"Season 6 | Ep. 1 | Panama City, Panama",Panama
No Reservations,6,2,Istanbul,Istanbul,Turkey,NA,"41.008238,28.978359",https://en.wikipedia.org/wiki/Anthony_Bourdain:_No_Reservations,41.008238,28.978359,"Season 6 | Ep. 2 | Istanbul, Turkey",Turkey
No Reservations,6,3,Brittany,Brittany,France,NA,"48.202047,-2.932644",https://en.wikipedia.org/wiki/Anthony_Bourdain:_No_Reservations,48.202047,-2.932644,"Season 6 | Ep. 3 | Brittany, France",France
No Reservations,6,4,Prague,Prague,Czech Republic,NA,"50.075538,14.437800",https://en.wikipedia.org/wiki/Anthony_Bourdain:_No_Reservations,50.075538,14.4378,"Season 6 | Ep. 4 | Prague, Czech Republic",Czech Republic
No Reservations,6,5,"Hudson Valley, NY",Hudson Valley,United States,New York,"41.920902,-73.961289",https://en.wikipedia.org/wiki/Anthony_Bourdain:_No_Reservations,41.920902,-73.961289,"Season 6 | Ep. 5 | Hudson Valley, United States",USA
No Reservations,6,6,Ecuador,Quito,Ecuador,NA,"-0.180653,-78.467838",https://en.wikipedia.org/wiki/Anthony_Bourdain:_No_Reservations,-0.180653,-78.467838,"Season 6 | Ep. 6 | Quito, Ecuador",Ecuador
No Reservations,6,6,Ecuador,Guayaquil,Ecuador,NA,"-2.170998,-79.922359",http://www.noreservationslocations.com/ecuador-episode.html,-2.170998,-79.922359,"Season 6 | Ep. 6 | Guayaquil, Ecuador",Ecuador
No Reservations,6,7,Obsessed,New York City,USA,NA,NA,https://en.wikipedia.org/wiki/Anthony_Bourdain:_No_Reservations,40.7127753,-74.0059728,"Season 6 | Ep. 7 | New York City, USA",USA
No Reservations,6,8,"Harbin, China",Harbin,China,NA,"45.803775,126.534967",https://en.wikipedia.org/wiki/Anthony_Bourdain:_No_Reservations,45.803775,126.534967,"Season 6 | Ep. 8 | Harbin, China",China
No Reservations,6,9,Provence,Provence,France,NA,"44.014494,6.211644",https://en.wikipedia.org/wiki/Anthony_Bourdain:_No_Reservations,44.014494,6.211644,"Season 6 | Ep. 9 | Provence, France",France
No Reservations,6,10,Vietnam: Central Highlands,Dalat,Vietnam,NA,"11.940419,108.458313",https://en.wikipedia.org/wiki/Anthony_Bourdain:_No_Reservations,11.940419,108.458313,"Season 6 | Ep. 10 | Dalat, Vietnam",Vietnam
No Reservations,6,10,Vietnam: Central Highlands,Hanoi,Vietnam,NA,"21.027764,105.834160",https://en.wikipedia.org/wiki/Anthony_Bourdain:_No_Reservations,21.027764,105.83416,"Season 6 | Ep. 10 | Hanoi, Vietnam",Vietnam
No Reservations,6,11,Techniques Special,New York City,USA,NA,NA,https://en.wikipedia.org/wiki/Anthony_Bourdain:_No_Reservations,40.7127753,-74.0059728,"Season 6 | Ep. 11 | New York City, USA",USA
No Reservations,6,12,Maine,Rockland,United States,Maine,"44.103691,-69.108929",http://www.noreservationslocations.com/maine-episode.html,44.103691,-69.108929,"Season 6 | Ep. 12 | Rockland, United States",USA
No Reservations,6,12,Maine,Portland,United States,Maine,"43.659099,-70.256819",http://www.noreservationslocations.com/maine-episode.html,43.659099,-70.256819,"Season 6 | Ep. 12 | Portland, United States",USA
No Reservations,6,13,Food Porn 2,Los Angeles,USA,NA,NA,https://en.wikipedia.org/wiki/Anthony_Bourdain:_No_Reservations,34.0522342,-118.2436849,"Season 6 | Ep. 13 | Los Angeles, USA",USA
No Reservations,6,14,Caribbean Island Hopping,St. Vincent and the Grenadines,St. Vincent and the Grenadines,NA,"12.984305,-61.287228",http://www.noreservationslocations.com/caribbean-island-hopping-episode.html,12.984305,-61.287228,"Season 6 | Ep. 14 | St. Vincent and the Grenadines, St. Vincent and the Grenadines",St. Vincent and the Grenadines
No Reservations,6,14,Caribbean Island Hopping,Bequia,St. Vincent and the Grenadines,NA,"13.011706,-61.227231",http://www.noreservationslocations.com/caribbean-island-hopping-episode.html,13.011706,-61.227231,"Season 6 | Ep. 14 | Bequia, St. Vincent and the Grenadines",St. Vincent and the Grenadines
No Reservations,6,15,US Heartland,Livonia,United States,Michigan,"42.368370,-83.352710",https://en.wikipedia.org/wiki/Anthony_Bourdain:_No_Reservations,42.36837,-83.35271,"Season 6 | Ep. 15 | Livonia, United States",USA
No Reservations,6,15,US Heartland,Columbus,United States,Ohio,"39.961176,-82.998794",https://en.wikipedia.org/wiki/Anthony_Bourdain:_No_Reservations,39.961176,-82.998794,"Season 6 | Ep. 15 | Columbus, United States",USA
No Reservations,6,15,US Heartland,Minneapolis,United States,Minnesota,"44.977753,-93.265011",https://en.wikipedia.org/wiki/Anthony_Bourdain:_No_Reservations,44.977753,-93.265011,"Season 6 | Ep. 15 | Minneapolis, United States",USA
No Reservations,6,15,US Heartland,Denver,United States,Colorado,"39.739236,-104.990251",https://en.wikipedia.org/wiki/Anthony_Bourdain:_No_Reservations,39.739236,-104.990251,"Season 6 | Ep. 15 | Denver, United States",USA
No Reservations,6,15,US Heartland,Austin,United States,Texas,"30.267153,-97.743061",https://en.wikipedia.org/wiki/Anthony_Bourdain:_No_Reservations,30.267153,-97.743061,"Season 6 | Ep. 15 | Austin, United States",USA
No Reservations,6,15,US Heartland,Milwaukee,United States,Wisconsin,"43.038902,-87.906474",https://en.wikipedia.org/wiki/Anthony_Bourdain:_No_Reservations,43.038902,-87.906474,"Season 6 | Ep. 15 | Milwaukee, United States",USA
No Reservations,6,16,Liberia,Monrovia,Liberia,NA,"6.290743,-10.760524",http://www.noreservationslocations.com/liberia-episode.html,6.290743,-10.760524,"Season 6 | Ep. 16 | Monrovia, Liberia",Liberia
No Reservations,6,16,Liberia,Robertsport,Liberia,NA,"6.750906,-11.367219",http://www.noreservationslocations.com/liberia-episode.html,6.750906,-11.367219,"Season 6 | Ep. 16 | Robertsport, Liberia",Liberia
No Reservations,6,17,"Kerala, India",Kerala,India,NA,"10.850516,76.271083",https://en.wikipedia.org/wiki/Anthony_Bourdain:_No_Reservations,10.850516,76.271083,"Season 6 | Ep. 17 | Kerala, India",India
No Reservations,6,18,Where It All Began,New York City,USA,NA,NA,https://en.wikipedia.org/wiki/Anthony_Bourdain:_No_Reservations,40.7127753,-74.0059728,"Season 6 | Ep. 18 | New York City, USA",USA
No Reservations,6,19,Dubai,Dubai,United Arab Emirates,NA,"25.204849,55.270783",https://en.wikipedia.org/wiki/Anthony_Bourdain:_No_Reservations,25.204849,55.270783,"Season 6 | Ep. 19 | Dubai, United Arab Emirates",United Arab Emirates
No Reservations,6,20,Rome,Rome,Italy,NA,"41.902783,12.496366",https://en.wikipedia.org/wiki/Anthony_Bourdain:_No_Reservations,41.902783,12.496366,"Season 6 | Ep. 20 | Rome, Italy",Italy
No Reservations,6,21,Back to Beirut,Beirut,Lebanon,NA,"33.893791,35.501777",https://en.wikipedia.org/wiki/Anthony_Bourdain:_No_Reservations,33.893791,35.501777,"Season 6 | Ep. 21 | Beirut, Lebanon",Lebanon
No Reservations,6,22,Making of India,Kerala,India,NA,NA,https://en.wikipedia.org/wiki/Anthony_Bourdain:_No_Reservations,10.8505159,76.2710833,"Season 6 | Ep. 22 | Kerala, India",India
No Reservations,6,23,What Were We Thinking Special,New York City,USA,NA,NA,https://en.wikipedia.org/wiki/Anthony_Bourdain:_No_Reservations,40.7127753,-74.0059728,"Season 6 | Ep. 23 | New York City, USA",USA
No Reservations,6,24,100th Episode - Paris,Paris,France,NA,"48.856614,2.352222",https://en.wikipedia.org/wiki/Anthony_Bourdain:_No_Reservations,48.856614,2.352222,"Season 6 | Ep. 24 | Paris, France",France
No Reservations,6,25,Madrid,Madrid,Spain,NA,"40.416775,-3.703790",https://en.wikipedia.org/wiki/Anthony_Bourdain:_No_Reservations,40.416775,-3.70379,"Season 6 | Ep. 25 | Madrid, Spain",Spain
No Reservations,6,26,Holiday Special,New York City,USA,NA,NA,https://en.wikipedia.org/wiki/Anthony_Bourdain:_No_Reservations,40.7127753,-74.0059728,"Season 6 | Ep. 26 | New York City, USA",USA
No Reservations,7,1,Haiti,Port-au-Prince,Haiti,NA,"18.594395,-72.307433",https://en.wikipedia.org/wiki/Anthony_Bourdain:_No_Reservations,18.594395,-72.307433,"Season 7 | Ep. 1 | Port-au-Prince, Haiti",Haiti
No Reservations,7,2,Cambodia,Siem Reap,Cambodia,NA,"13.355009,103.855173",https://en.wikipedia.org/wiki/Anthony_Bourdain:_No_Reservations,13.355009,103.855173,"Season 7 | Ep. 2 | Siem Reap, Cambodia",Cambodia
No Reservations,7,2,Cambodia,Kep,Cambodia,NA,"10.536089,104.355916",https://en.wikipedia.org/wiki/Anthony_Bourdain:_No_Reservations,10.536089,104.355916,"Season 7 | Ep. 2 | Kep, Cambodia",Cambodia
No Reservations,7,2,Cambodia,Phnom Penh,Cambodia,NA,"11.556374,104.928210",https://en.wikipedia.org/wiki/Anthony_Bourdain:_No_Reservations,11.556374,104.92821000000001,"Season 7 | Ep. 2 | Phnom Penh, Cambodia",Cambodia
No Reservations,7,2,Cambodia,Kampot,Cambodia,NA,"10.594242,104.164035",https://en.wikipedia.org/wiki/Anthony_Bourdain:_No_Reservations,10.594242,104.164035,"Season 7 | Ep. 2 | Kampot, Cambodia",Cambodia
No Reservations,7,3,Nicaragua,Managua,Nicaragua,NA,"12.114993,-86.236174",https://en.wikipedia.org/wiki/Anthony_Bourdain:_No_Reservations,12.114993,-86.236174,"Season 7 | Ep. 3 | Managua, Nicaragua",Nicaragua
No Reservations,7,3,Nicaragua,Granada,Nicaragua,NA,"11.934407,-85.956001",https://en.wikipedia.org/wiki/Anthony_Bourdain:_No_Reservations,11.934407,-85.956001,"Season 7 | Ep. 3 | Granada, Nicaragua",Nicaragua
No Reservations,7,3,Nicaragua,Esteli,Nicaragua,NA,"13.085114,-86.363020",https://en.wikipedia.org/wiki/Anthony_Bourdain:_No_Reservations,13.085114,-86.36302,"Season 7 | Ep. 3 | Esteli, Nicaragua",Nicaragua
No Reservations,7,4,Vienna,Vienna,Austria,NA,"48.208174,16.373819",https://en.wikipedia.org/wiki/Anthony_Bourdain:_No_Reservations,48.208174,16.373819,"Season 7 | Ep. 4 | Vienna, Austria",Austria
No Reservations,7,5,Ozarks,West Plains,Missouri,NA,"36.728115,-91.852371",https://en.wikipedia.org/wiki/Anthony_Bourdain:_No_Reservations,36.728115,-91.852371,"Season 7 | Ep. 5 | West Plains, Missouri",USA
No Reservations,7,6,Brazil (the Amazon),Belém,Brazil,NA,"-1.455729,-48.490179",https://en.wikipedia.org/wiki/Anthony_Bourdain:_No_Reservations,-1.455729,-48.490179,"Season 7 | Ep. 6 | Belém, Brazil",Brazil
No Reservations,7,7,Boston,Boston,Massachusetts,NA,"42.360082,-71.058880",https://en.wikipedia.org/wiki/Anthony_Bourdain:_No_Reservations,42.360082,-71.05888,"Season 7 | Ep. 7 | Boston, Massachusetts",USA
No Reservations,7,8,Japan: Hokkaido,Sapporo,Japan,NA,"43.062096,141.354376",https://en.wikipedia.org/wiki/Anthony_Bourdain:_No_Reservations,43.062096,141.354376,"Season 7 | Ep. 8 | Sapporo, Japan",Japan
No Reservations,7,9,Cuba,Havana,Cuba,NA,"23.113592,-82.366596",https://en.wikipedia.org/wiki/Anthony_Bourdain:_No_Reservations,23.113592,-82.366596,"Season 7 | Ep. 9 | Havana, Cuba",Cuba
No Reservations,7,10,Macau,Macau,China,NA,"22.198745,113.543873",https://en.wikipedia.org/wiki/Anthony_Bourdain:_No_Reservations,22.198745,113.543873,"Season 7 | Ep. 10 | Macau, China",China
No Reservations,7,11,Naples,Naples,Italy,NA,"40.851775,14.268124",https://en.wikipedia.org/wiki/Anthony_Bourdain:_No_Reservations,40.851775,14.268124,"Season 7 | Ep. 11 | Naples, Italy",Italy
No Reservations,7,12,El Bulli,"Roses, Catalonia",Spain,NA,"42.260520,3.208099",https://en.wikipedia.org/wiki/Anthony_Bourdain:_No_Reservations,42.26052,3.208099,"Season 7 | Ep. 12 | Roses, Catalonia, Spain",Spain
No Reservations,7,13,US Desert,Pioneertown,California,NA,"34.156442,-116.498645",https://en.wikipedia.org/wiki/Anthony_Bourdain:_No_Reservations,34.156442,-116.498645,"Season 7 | Ep. 13 | Pioneertown, California",USA
No Reservations,7,13,US Desert,Joshua Tree,California,NA,"34.134728,-116.313066",https://en.wikipedia.org/wiki/Anthony_Bourdain:_No_Reservations,34.134728,-116.313066,"Season 7 | Ep. 13 | Joshua Tree, California",USA
No Reservations,7,13,US Desert,Rancho Mirage,California,NA,"33.739744,-116.412790",https://en.wikipedia.org/wiki/Anthony_Bourdain:_No_Reservations,33.739744,-116.41279,"Season 7 | Ep. 13 | Rancho Mirage, California",USA
No Reservations,7,13,US Desert,Coachella,California,NA,"33.680300,-116.173894",https://en.wikipedia.org/wiki/Anthony_Bourdain:_No_Reservations,33.6803,-116.173894,"Season 7 | Ep. 13 | Coachella, California",USA
No Reservations,7,14,Ukraine,Crimea,Ukraine,NA,"44.952117,34.102417",https://en.wikipedia.org/wiki/Anthony_Bourdain:_No_Reservations,44.952117,34.102417,"Season 7 | Ep. 14 | Crimea, Ukraine",Ukraine
No Reservations,7,14,Ukraine,Chernobyl,Ukraine,NA,"51.276303,30.221899",https://en.wikipedia.org/wiki/Anthony_Bourdain:_No_Reservations,51.276303,30.221899,"Season 7 | Ep. 14 | Chernobyl, Ukraine",Ukraine
No Reservations,7,15,Kurdistan,Iraqi Kurdistan,Iraq,NA,"36.410339,44.387195",https://en.wikipedia.org/wiki/Anthony_Bourdain:_No_Reservations,36.410339,44.387195,"Season 7 | Ep. 15 | Iraqi Kurdistan, Iraq",Iraq
No Reservations,7,15,Kurdistan,Turkish Kurdistan,Turkey,NA,"38.963745,35.243322",https://en.wikipedia.org/wiki/Anthony_Bourdain:_No_Reservations,38.963745,35.243322,"Season 7 | Ep. 15 | Turkish Kurdistan, Turkey",Turkey
No Reservations,7,16,Cajun Country,New Orleans,United States,Louisiana,"29.951066,-90.071532",https://en.wikipedia.org/wiki/Anthony_Bourdain:_No_Reservations,29.951066,-90.071532,"Season 7 | Ep. 16 | New Orleans, United States",USA
No Reservations,7,16,Cajun Country,Breaux Bridge,United States,Louisiana,"30.273532,-91.899284",https://en.wikipedia.org/wiki/Anthony_Bourdain:_No_Reservations,30.273532,-91.899284,"Season 7 | Ep. 16 | Breaux Bridge, United States",USA
No Reservations,7,16,Cajun Country,Metairie,United States,Louisiana,"29.984092,-90.152852",https://en.wikipedia.org/wiki/Anthony_Bourdain:_No_Reservations,29.984092,-90.152852,"Season 7 | Ep. 16 | Metairie, United States",USA
No Reservations,7,17,Holiday Special 2011,New York City,USA,NA,NA,https://en.wikipedia.org/wiki/Anthony_Bourdain:_No_Reservations,40.7127753,-74.0059728,"Season 7 | Ep. 17 | New York City, USA",USA
No Reservations,8,1,Mozambique,Beira,Mozambique,NA,"-19.831595,34.837018",https://en.wikipedia.org/wiki/Anthony_Bourdain:_No_Reservations,-19.831595,34.837018,"Season 8 | Ep. 1 | Beira, Mozambique",Mozambique
No Reservations,8,1,Mozambique,Mozambique Island,Mozambique,NA,"-15.036449,40.732331",https://en.wikipedia.org/wiki/Anthony_Bourdain:_No_Reservations,-15.036449,40.732331,"Season 8 | Ep. 1 | Mozambique Island, Mozambique",Mozambique
No Reservations,8,1,Mozambique,Maputo,Mozambique,NA,"-25.969248,32.573175",https://en.wikipedia.org/wiki/Anthony_Bourdain:_No_Reservations,-25.969248,32.573175,"Season 8 | Ep. 1 | Maputo, Mozambique",Mozambique
No Reservations,8,2,Kansas City,Kansas City,Missouri,NA,"39.099727,-94.578567",https://en.wikipedia.org/wiki/Anthony_Bourdain:_No_Reservations,39.099727,-94.578567,"Season 8 | Ep. 2 | Kansas City, Missouri",USA
No Reservations,8,2,Kansas City,Kansas City,Kansas,NA,"39.114053,-94.627464",https://en.wikipedia.org/wiki/Anthony_Bourdain:_No_Reservations,39.114053,-94.627464,"Season 8 | Ep. 2 | Kansas City, Kansas",USA
No Reservations,8,3,Croatian Coast,Zadar,Croatia,NA,"44.119371,15.231365",http://www.noreservationslocations.com/croatian-coast-episode.html,44.119371,15.231365,"Season 8 | Ep. 3 | Zadar, Croatia",Croatia
No Reservations,8,3,Croatian Coast,Motovun,Croatia,NA,"45.335951,13.827861",http://www.noreservationslocations.com/croatian-coast-episode.html,45.335951,13.827861,"Season 8 | Ep. 3 | Motovun, Croatia",Croatia
No Reservations,8,3,Croatian Coast,Skradin,Croatia,NA,"43.817637,15.923255",http://www.noreservationslocations.com/croatian-coast-episode.html,43.817637,15.923255,"Season 8 | Ep. 3 | Skradin, Croatia",Croatia
No Reservations,8,4,Lisbon,Lisbon,Portugal,NA,"38.722252,-9.139337",https://en.wikipedia.org/wiki/Anthony_Bourdain:_No_Reservations,38.722252,-9.139337,"Season 8 | Ep. 4 | Lisbon, Portugal",Portugal
No Reservations,8,5,Japan: Cook It Raw,Tokyo,Japan,NA,"35.689487,139.691706",https://www.imdb.com/title/tt2375989/locations?ref_=tt_dt_dt,35.689487,139.691706,"Season 8 | Ep. 5 | Tokyo, Japan",Japan
No Reservations,8,5,Japan: Cook It Raw,"Kaga, Ishikawa",Japan,NA,"36.302624,136.314627",https://www.imdb.com/title/tt2375989/locations?ref_=tt_dt_dt,36.302624,136.314627,"Season 8 | Ep. 5 | Kaga, Ishikawa, Japan",Japan
No Reservations,8,5,Japan: Cook It Raw,"Kanazawa, Ishikawa",Japan,NA,"36.561325,136.656205",https://www.imdb.com/title/tt2375989/locations?ref_=tt_dt_dt,36.561325,136.656205,"Season 8 | Ep. 5 | Kanazawa, Ishikawa, Japan",Japan
No Reservations,8,5,Japan: Cook It Raw,"Hakusan City, Ishikawa",Japan,NA,"36.514427,136.565892",https://www.imdb.com/title/tt2375989/locations?ref_=tt_dt_dt,36.514427,136.565892,"Season 8 | Ep. 5 | Hakusan City, Ishikawa, Japan",Japan
No Reservations,8,6,Finland,Helsinki,Finland,NA,"60.169856,24.938379",https://en.wikipedia.org/wiki/Anthony_Bourdain:_No_Reservations,60.169856,24.938379,"Season 8 | Ep. 6 | Helsinki, Finland",Finland
No Reservations,8,7,Baja,"Ensenada, Baja California Norte",Mexico,NA,"31.866743,-116.596371",https://www.imdb.com/title/tt2155960/locations?ref_=tt_dt_dt,31.866743,-116.596371,"Season 8 | Ep. 7 | Ensenada, Baja California Norte, Mexico",Mexico
No Reservations,8,7,Baja,"Tijuana, Baja California Norte",Mexico,NA,"32.514947,-117.038247",https://www.imdb.com/title/tt2155960/locations?ref_=tt_dt_dt,32.514947,-117.038247,"Season 8 | Ep. 7 | Tijuana, Baja California Norte, Mexico",Mexico
No Reservations,8,8,Penang,Penang,Malaysia,NA,"5.416393,100.332679",https://en.wikipedia.org/wiki/Anthony_Bourdain:_No_Reservations,5.416393,100.332679,"Season 8 | Ep. 8 | Penang, Malaysia",Malaysia
No Reservations,9,1,Austin,Austin,United States,Texas,"30.267153,-97.743061",https://en.wikipedia.org/wiki/Anthony_Bourdain:_No_Reservations,30.267153,-97.743061,"Season 9 | Ep. 1 | Austin, United States",USA
No Reservations,9,2,Sydney,Sydney,Australia,NA,"-33.868820,151.209296",https://en.wikipedia.org/wiki/Anthony_Bourdain:_No_Reservations,-33.86882,151.209296,"Season 9 | Ep. 2 | Sydney, Australia",Australia
No Reservations,9,3,"Sex, Drugs And Rock & Roll",Phnom Penh,Cambodia,NA,NA,https://en.wikipedia.org/wiki/Anthony_Bourdain:_No_Reservations,11.5563738,104.9282099,"Season 9 | Ep. 3 | Phnom Penh, Cambodia",Cambodia
No Reservations,9,4,Emilia Romagna,Bologna,Italy,NA,"44.494887,11.342616",https://www.imdb.com/title/tt2388838/locations?ref_=tt_dt_dt,44.494887,11.342616,"Season 9 | Ep. 4 | Bologna, Italy",Italy
No Reservations,9,4,Emilia Romagna,Polesine Parmense,Italy,NA,"45.020027,10.088044",https://www.imdb.com/title/tt2388838/locations?ref_=tt_dt_dt,45.020027,10.088044,"Season 9 | Ep. 4 | Polesine Parmense, Italy",Italy
No Reservations,9,4,Emilia Romagna,Modena,Italy,NA,"44.647128,10.925227",https://en.wikipedia.org/wiki/Anthony_Bourdain:_No_Reservations,44.647128,10.925227,"Season 9 | Ep. 4 | Modena, Italy",Italy
No Reservations,9,5,Burgundy,Morey-Saint-Denis,France,NA,"47.195673,4.962496",https://www.imdb.com/title/tt2388842/locations?ref_=tt_dt_dt,47.195673,4.962496,"Season 9 | Ep. 5 | Morey-Saint-Denis, France",France
No Reservations,9,5,Burgundy,Pacy-sur-Armançon,France,NA,"47.777121,4.094861",https://www.imdb.com/title/tt2388842/locations?ref_=tt_dt_dt,47.777121,4.094861,"Season 9 | Ep. 5 | Pacy-sur-Armançon, France",France
No Reservations,9,5,Burgundy,Beaune,France,NA,"47.026030,4.840004",https://www.imdb.com/title/tt2388842/locations?ref_=tt_dt_dt,47.02603,4.840004,"Season 9 | Ep. 5 | Beaune, France",France
No Reservations,9,5,Burgundy,Nuits-Saint-Georges,France,NA,"47.137985,4.950320",https://www.imdb.com/title/tt2388842/locations?ref_=tt_dt_dt,47.137985,4.95032,"Season 9 | Ep. 5 | Nuits-Saint-Georges, France",France
No Reservations,9,5,Burgundy,Auxerre,France,NA,"47.798202,3.573781",https://www.imdb.com/title/tt2388842/locations?ref_=tt_dt_dt,47.798202,3.573781,"Season 9 | Ep. 5 | Auxerre, France",France
No Reservations,9,5,Burgundy,Yonne,France,NA,"47.865273,3.607982",https://www.imdb.com/title/tt2388842/locations?ref_=tt_dt_dt,47.865273,3.607982,"Season 9 | Ep. 5 | Yonne, France",France
No Reservations,9,5,Burgundy,Noyers,France,NA,"47.695641,3.995663",https://www.imdb.com/title/tt2388842/locations?ref_=tt_dt_dt,47.695641,3.995663,"Season 9 | Ep. 5 | Noyers, France",France
No Reservations,9,5,Burgundy,Vézelay,France,NA,"47.465674,3.746143",https://www.imdb.com/title/tt2388842/locations?ref_=tt_dt_dt,47.465674,3.746143,"Season 9 | Ep. 5 | Vézelay, France",France
No Reservations,9,5,Burgundy,Saint-Père,France,NA,"47.459395,3.765224",https://en.wikipedia.org/wiki/Anthony_Bourdain:_No_Reservations,47.459395,3.765224,"Season 9 | Ep. 5 | Saint-Père, France",France
No Reservations,9,6,Seven Deadly Sins,Rome,Italy,NA,NA,https://en.wikipedia.org/wiki/Anthony_Bourdain:_No_Reservations,41.9027835,12.4963655,"Season 9 | Ep. 6 | Rome, Italy",Italy
No Reservations,9,7,Rio,Rio de Janeiro,Brazil,NA,"-22.906847,-43.172896",https://en.wikipedia.org/wiki/Anthony_Bourdain:_No_Reservations,-22.906847,-43.172896,"Season 9 | Ep. 7 | Rio de Janeiro, Brazil",Brazil
No Reservations,9,8,Off The Charts,Cluj-Napoca,Romania,NA,NA,https://en.wikipedia.org/wiki/Anthony_Bourdain:_No_Reservations,46.7712101,23.6236353,"Season 9 | Ep. 8 | Cluj-Napoca, Romania",Romania
No Reservations,9,9,Dominican Republic,Santo Domingo,Dominican Republic,NA,"18.486058,-69.931212",https://www.imdb.com/title/tt2388854/locations?ref_=tt_dt_dt,18.486058,-69.931212,"Season 9 | Ep. 9 | Santo Domingo, Dominican Republic",Dominican Republic
No Reservations,9,9,NA,Playa Rincon,Dominican Republic,NA,"19.289455,-69.249945",https://www.imdb.com/title/tt2388854/locations?ref_=tt_dt_dt,19.289455,-69.249945,"Season 9 | Ep. 9 | Playa Rincon, Dominican Republic",Dominican Republic
No Reservations,9,9,NA,Samaná,Dominican Republic,NA,"19.203076,-69.338766",https://www.imdb.com/title/tt2388854/locations?ref_=tt_dt_dt,19.203076,-69.338766,"Season 9 | Ep. 9 | Samaná, Dominican Republic",Dominican Republic
No Reservations,9,10,Brooklyn,"Brooklyn, New York",United States,New York,"40.678178,-73.944158",https://en.wikipedia.org/wiki/Anthony_Bourdain:_No_Reservations,40.678178,-73.944158,"Season 9 | Ep. 10 | Brooklyn, New York, United States",USA
The Layover,1,1,Singapore,Singapore,Singapore,NA,"1.352083,103.819836",https://en.wikipedia.org/wiki/The_Layover,1.352083,103.819836,"Season 1 | Ep. 1 | Singapore, Singapore",Singapore
The Layover,1,2,New York,New York,United States,New York,"40.712775,-74.005973",https://en.wikipedia.org/wiki/The_Layover,40.712775,-74.005973,"Season 1 | Ep. 2 | New York, United States",USA
The Layover,1,3,Rome,Rome,Italy,NA,"41.902783,12.496366",https://en.wikipedia.org/wiki/The_Layover,41.902783,12.496366,"Season 1 | Ep. 3 | Rome, Italy",Italy
The Layover,1,4,Miami,Miami,United States,Florida,"25.761680,-80.191790",https://en.wikipedia.org/wiki/The_Layover,25.76168,-80.19179,"Season 1 | Ep. 4 | Miami, United States",USA
The Layover,1,5,Hong Kong,Hong Kong,China,NA,"22.396428,114.109497",https://en.wikipedia.org/wiki/The_Layover,22.396428,114.109497,"Season 1 | Ep. 5 | Hong Kong, China",China
The Layover,1,6,Montreal,"Montreal, Quebec",Canada,NA,"45.501689,-73.567256",https://en.wikipedia.org/wiki/The_Layover,45.501689,-73.567256,"Season 1 | Ep. 6 | Montreal, Quebec, Canada",Canada
The Layover,1,7,Amsterdam,Amsterdam,Netherlands,NA,"52.370216,4.895168",https://en.wikipedia.org/wiki/The_Layover,52.370216,4.895168,"Season 1 | Ep. 7 | Amsterdam, Netherlands",Netherlands
The Layover,1,8,San Francisco,San Francisco,United States,California,"37.774929,-122.419416",https://en.wikipedia.org/wiki/The_Layover,37.774929,-122.419416,"Season 1 | Ep. 8 | San Francisco, United States",USA
The Layover,1,9,London,London,"England, United Kingdom",NA,"51.507351,-0.127758",https://en.wikipedia.org/wiki/The_Layover,51.507351,-0.127758,"Season 1 | Ep. 9 | London, England, United Kingdom",England
The Layover,1,10,Los Angeles,Los Angeles,United States,California,"34.052234,-118.243685",https://en.wikipedia.org/wiki/The_Layover,34.052234,-118.243685,"Season 1 | Ep. 10 | Los Angeles, United States",USA
The Layover,2,1,Chicago,Chicago,United States,NA,"41.878114,-87.629798",https://en.wikipedia.org/wiki/The_Layover,41.878114,-87.629798,"Season 2 | Ep. 1 | Chicago, United States",USA
The Layover,2,2,Paris,Paris,France,NA,"48.856614,2.352222",https://en.wikipedia.org/wiki/The_Layover,48.856614,2.352222,"Season 2 | Ep. 2 | Paris, France",France
The Layover,2,3,Philadelphia,Philadelphia,United States,Pennsylvania,"39.952584,-75.165222",https://en.wikipedia.org/wiki/The_Layover,39.952584,-75.165222,"Season 2 | Ep. 3 | Philadelphia, United States",USA
The Layover,2,4,São Paulo,São Paulo,Brazil,NA,"-23.550520,-46.633309",https://en.wikipedia.org/wiki/The_Layover,-23.55052,-46.633309,"Season 2 | Ep. 4 | São Paulo, Brazil",Brazil
The Layover,2,5,Toronto,Toronto,Canada,NA,"43.653226,-79.383184",https://en.wikipedia.org/wiki/The_Layover,43.653226,-79.383184,"Season 2 | Ep. 5 | Toronto, Canada",Canada
The Layover,2,6,Dublin,Dublin,Ireland,NA,"53.349805,-6.260310",https://en.wikipedia.org/wiki/The_Layover,53.349805,-6.26031,"Season 2 | Ep. 6 | Dublin, Ireland",Ireland
The Layover,2,7,Atlanta,Atlanta,United States,Georgia,"33.748995,-84.387982",https://en.wikipedia.org/wiki/The_Layover,33.748995,-84.387982,"Season 2 | Ep. 7 | Atlanta, United States",USA
The Layover,2,8,Taipei,Taipei,Taiwan,NA,"25.032969,121.565418",https://en.wikipedia.org/wiki/The_Layover,25.032969,121.565418,"Season 2 | Ep. 8 | Taipei, Taiwan",Taiwan
The Layover,2,9,New Orleans,New Orleans,United States,Louisiana,"29.951066,-90.071532",https://en.wikipedia.org/wiki/The_Layover,29.951066,-90.071532,"Season 2 | Ep. 9 | New Orleans, United States",USA
The Layover,2,10,Seattle,Seattle,United States,Washington,"47.606209,-122.332071",https://en.wikipedia.org/wiki/The_Layover,47.606209,-122.332071,"Season 2 | Ep. 10 | Seattle, United States",USA
Parts Unknown,1,1,Myanmar,Yangon,Myanmar,NA,"16.866069,96.195132",https://www.imdb.com/title/tt2849368/locations?ref_=tt_dt_dt,16.866069,96.195132,"Season 1 | Ep. 1 | Yangon, Myanmar",Myanmar
Parts Unknown,1,1,Myanmar,Bagan,Myanmar,NA,"21.171727,94.858546",https://www.imdb.com/title/tt2849368/locations?ref_=tt_dt_dt,21.171727,94.858546,"Season 1 | Ep. 1 | Bagan, Myanmar",Myanmar
Parts Unknown,1,2,Los Angeles,"Koreatown, Los Angeles",United States,California,"34.060988,-118.302358",https://en.wikipedia.org/wiki/Anthony_Bourdain:_Parts_Unknown,34.060988,-118.302358,"Season 1 | Ep. 2 | Koreatown, Los Angeles, United States",USA
Parts Unknown,1,2,Los Angeles,"Venice, Los Angeles",United States,California,"33.985047,-118.469483",https://en.wikipedia.org/wiki/Anthony_Bourdain:_Parts_Unknown,33.985047,-118.469483,"Season 1 | Ep. 2 | Venice, Los Angeles, United States",USA
Parts Unknown,1,2,Los Angeles,"Los Feliz, Los Angeles",United States,California,"34.106331,-118.284820",https://en.wikipedia.org/wiki/Anthony_Bourdain:_Parts_Unknown,34.106331,-118.28482,"Season 1 | Ep. 2 | Los Feliz, Los Angeles, United States",USA
Parts Unknown,1,2,Los Angeles,"Whittier Boulevard, East Los Angeles",United States,California,"34.020798,-118.159085",https://en.wikipedia.org/wiki/Anthony_Bourdain:_Parts_Unknown,34.020798,-118.159085,"Season 1 | Ep. 2 | Whittier Boulevard, East Los Angeles, United States",USA
Parts Unknown,1,3,Colombia,Meta,Colombia,NA,"3.271990,-73.087749",https://www.imdb.com/title/tt2849394/locations?ref_=tt_dt_dt,3.27199,-73.087749,"Season 1 | Ep. 3 | Meta, Colombia",Colombia
Parts Unknown,1,3,Colombia,Guaviare,Colombia,NA,"2.043924,-72.331113",https://www.imdb.com/title/tt2849394/locations?ref_=tt_dt_dt,2.043924,-72.331113,"Season 1 | Ep. 3 | Guaviare, Colombia",Colombia
Parts Unknown,1,3,Colombia,Bogotá,Colombia,NA,"4.710989,-74.072092",https://www.imdb.com/title/tt2849394/locations?ref_=tt_dt_dt,4.710989,-74.072092,"Season 1 | Ep. 3 | Bogotá, Colombia",Colombia
Parts Unknown,1,3,Colombia,Valle del Cauca,Colombia,NA,"3.800889,-76.641271",https://www.imdb.com/title/tt2849394/locations?ref_=tt_dt_dt,3.800889,-76.641271,"Season 1 | Ep. 3 | Valle del Cauca, Colombia",Colombia
Parts Unknown,1,3,Colombia,La Guajira,Colombia,NA,"11.354774,-72.520483",https://www.imdb.com/title/tt2849394/locations?ref_=tt_dt_dt,11.354774,-72.520483,"Season 1 | Ep. 3 | La Guajira, Colombia",Colombia
Parts Unknown,1,4,Quebec,"Montreal, Quebec",Canada,NA,"45.501689,-73.567256",https://en.wikipedia.org/wiki/Anthony_Bourdain:_Parts_Unknown,45.501689,-73.567256,"Season 1 | Ep. 4 | Montreal, Quebec, Canada",Canada
Parts Unknown,1,4,Quebec,"Quebec City, Quebec",Canada,NA,"46.813878,-71.207981",https://en.wikipedia.org/wiki/Anthony_Bourdain:_Parts_Unknown,46.813878,-71.207981,"Season 1 | Ep. 4 | Quebec City, Quebec, Canada",Canada
Parts Unknown,1,5,Morocco (Tangier),Tangier,Morocco,NA,"35.759465,-5.833954",https://en.wikipedia.org/wiki/Anthony_Bourdain:_Parts_Unknown,35.759465,-5.833954,"Season 1 | Ep. 5 | Tangier, Morocco",Morocco
Parts Unknown,1,6,Libya,Tripoli,Libya,NA,"35.759820,-5.834237",https://en.wikipedia.org/wiki/Anthony_Bourdain:_Parts_Unknown,35.75982,-5.834237,"Season 1 | Ep. 6 | Tripoli, Libya",Libya
Parts Unknown,1,6,Libya,Al Khums,Libya,NA,"32.650951,14.267899",https://www.imdb.com/title/tt2849400/locations?ref_=tt_dt_dt,32.650951,14.267899,"Season 1 | Ep. 6 | Al Khums, Libya",Libya
Parts Unknown,1,6,Libya,Misrata,Libya,NA,"32.325588,15.099256",https://www.imdb.com/title/tt2849400/locations?ref_=tt_dt_dt,32.325588,15.099256,"Season 1 | Ep. 6 | Misrata, Libya",Libya
Parts Unknown,1,6,Libya,Murqub,Libya,NA,"32.459968,14.100133",https://www.imdb.com/title/tt2849400/locations?ref_=tt_dt_dt,32.459968,14.100133,"Season 1 | Ep. 6 | Murqub, Libya",Libya
Parts Unknown,1,7,Peru,Lima,Peru,NA,"-12.046373,-77.042754",https://www.imdb.com/title/tt2849408/locations?ref_=tt_dt_dt,-12.046373000000001,-77.042754,"Season 1 | Ep. 7 | Lima, Peru",Peru
Parts Unknown,1,7,Peru,Chiclayo,Peru,NA,"-6.776597,-79.844298",https://www.imdb.com/title/tt2849408/locations?ref_=tt_dt_dt,-6.776597,-79.844298,"Season 1 | Ep. 7 | Chiclayo, Peru",Peru
Parts Unknown,1,8,Congo,"Goma, North Kivu",Democratic Republic of the Congo,NA,"-1.658501,29.220455",https://www.imdb.com/title/tt2849384/locations?ref_=tt_dt_dt,-1.658501,29.220455,"Season 1 | Ep. 8 | Goma, North Kivu, Democratic Republic of the Congo",Democratic Republic of the Congo
Parts Unknown,1,8,Congo,"Kisangani, Orientale",Democratic Republic of the Congo,NA,"0.518530,25.200773",https://www.imdb.com/title/tt2849384/locations?ref_=tt_dt_dt,0.51853,25.200773,"Season 1 | Ep. 8 | Kisangani, Orientale, Democratic Republic of the Congo",Democratic Republic of the Congo
Parts Unknown,2,2,Jerusalem,Jerusalem,Israel,NA,"31.768319,35.213710",https://www.imdb.com/title/tt3285356/?ref_=ttep_ep1,31.768319,35.21371,"Season 2 | Ep. 2 | Jerusalem, Israel",Israel
Parts Unknown,2,2,Jerusalem,"Aida, West Bank",Palestine,NA,"31.946570,35.302723",https://www.imdb.com/title/tt3285356/?ref_=ttep_ep1,31.94657,35.302723,"Season 2 | Ep. 2 | Aida, West Bank, Palestine",Palestine
Parts Unknown,2,2,Jerusalem,Bethlehem,Palestine,NA,"31.705382,35.202442",https://www.imdb.com/title/tt3285356/?ref_=ttep_ep1,31.705382,35.202442,"Season 2 | Ep. 2 | Bethlehem, Palestine",Palestine
Parts Unknown,2,2,Jerusalem,Ein Rafa,Israel,NA,"31.790605,35.116514",https://www.imdb.com/title/tt3285356/?ref_=ttep_ep1,31.790605,35.116514,"Season 2 | Ep. 2 | Ein Rafa, Israel",Israel
Parts Unknown,2,2,Jerusalem,Gaza,Palestine,NA,"31.354676,34.308826",https://www.imdb.com/title/tt3285356/?ref_=ttep_ep1,31.354676,34.308826,"Season 2 | Ep. 2 | Gaza, Palestine",Palestine
Parts Unknown,2,2,Jerusalem,Bror Hayil,Israel,NA,"31.556985,34.646547",https://www.imdb.com/title/tt3285356/?ref_=ttep_ep1,31.556985,34.646547,"Season 2 | Ep. 2 | Bror Hayil, Israel",Israel
Parts Unknown,2,2,Jerusalem,Ramallah,Palestine,NA,"31.903764,35.203418",https://www.imdb.com/title/tt3285356/?ref_=ttep_ep1,31.903764,35.203418,"Season 2 | Ep. 2 | Ramallah, Palestine",Palestine
Parts Unknown,2,3,Spain,"Granada, Andalucia",Spain,NA,"37.177336,-3.598557",https://en.wikipedia.org/wiki/Anthony_Bourdain:_Parts_Unknown,37.177336,-3.598557,"Season 2 | Ep. 3 | Granada, Andalucia, Spain",Spain
Parts Unknown,2,4,New Mexico,Santa Fe,United States,New Mexico,"35.686975,-105.937799",https://en.wikipedia.org/wiki/Anthony_Bourdain:_Parts_Unknown,35.686975,-105.937799,"Season 2 | Ep. 4 | Santa Fe, United States",USA
Parts Unknown,2,4,New Mexico,Zia Pueblo,United States,New Mexico,"35.506976,-106.720311",https://en.wikipedia.org/wiki/Anthony_Bourdain:_Parts_Unknown,35.506976,-106.720311,"Season 2 | Ep. 4 | Zia Pueblo, United States",USA
Parts Unknown,2,4,New Mexico,Alberquerque,United States,New Mexico,"35.084386,-106.650422",https://en.wikipedia.org/wiki/Anthony_Bourdain:_Parts_Unknown,35.084386,-106.650422,"Season 2 | Ep. 4 | Alberquerque, United States",USA
Parts Unknown,2,5,Copenhagen,Copenhagen,Denmark,NA,"55.676097,12.568337",https://en.wikipedia.org/wiki/Anthony_Bourdain:_Parts_Unknown,55.676097,12.568337,"Season 2 | Ep. 5 | Copenhagen, Denmark",Denmark
Parts Unknown,2,6,Sicily,NA,Sicily,NA,"37.599994,14.015356",http://anthonybourdain.tumblr.com/post/63750682556/failure,37.599994,14.015356,"Season 2 | Ep. 6 | NA, Sicily",Sicily
Parts Unknown,2,7,South Africa,Johannesburg,South Africa,NA,"-26.204103,28.047305",https://en.wikipedia.org/wiki/Anthony_Bourdain:_Parts_Unknown,-26.204103,28.047305,"Season 2 | Ep. 7 | Johannesburg, South Africa",South Africa
Parts Unknown,2,8,Tokyo,Tokyo,Japan,NA,"35.689487,139.691706",https://en.wikipedia.org/wiki/Anthony_Bourdain:_Parts_Unknown,35.689487,139.691706,"Season 2 | Ep. 8 | Tokyo, Japan",Japan
Parts Unknown,2,9,Detroit,Detroit,United States,Michigan,"42.331427,-83.045754",https://en.wikipedia.org/wiki/Anthony_Bourdain:_Parts_Unknown,42.331427,-83.045754,"Season 2 | Ep. 9 | Detroit, United States",USA
Parts Unknown,3,2,"Punjab, India","Amritsar, Punjab",India,NA,"31.633979,74.872264",https://en.wikipedia.org/wiki/Anthony_Bourdain:_Parts_Unknown,31.633979,74.872264,"Season 3 | Ep. 2 | Amritsar, Punjab, India",India
Parts Unknown,3,3,Las Vegas,Las Vegas,United States,Nevada,"36.169941,-115.139830",https://en.wikipedia.org/wiki/Anthony_Bourdain:_Parts_Unknown,36.169941,-115.13983,"Season 3 | Ep. 3 | Las Vegas, United States",USA
Parts Unknown,3,4,Lyon,Lyon,France,NA,"45.764043,4.835659",https://en.wikipedia.org/wiki/Anthony_Bourdain:_Parts_Unknown,45.764043,4.835659,"Season 3 | Ep. 4 | Lyon, France",France
Parts Unknown,3,5,Mexico City,Mexico City,Mexico,NA,"19.432608,-99.133208",https://en.wikipedia.org/wiki/Anthony_Bourdain:_Parts_Unknown,19.432608,-99.133208,"Season 3 | Ep. 5 | Mexico City, Mexico",Mexico
Parts Unknown,3,5,Mexico City,Oaxaca,Mexico,NA,"17.073184,-96.726589",https://en.wikipedia.org/wiki/Anthony_Bourdain:_Parts_Unknown,17.073184,-96.726589,"Season 3 | Ep. 5 | Oaxaca, Mexico",Mexico
Parts Unknown,3,5,Mexico City,Cuernavaca,Mexico,NA,"18.924209,-99.221566",https://en.wikipedia.org/wiki/Anthony_Bourdain:_Parts_Unknown,18.924209,-99.221566,"Season 3 | Ep. 5 | Cuernavaca, Mexico",Mexico
Parts Unknown,3,6,Russia,Moscow,Russia,NA,"55.755826,37.617300",https://en.wikipedia.org/wiki/Anthony_Bourdain:_Parts_Unknown,55.755826,37.6173,"Season 3 | Ep. 6 | Moscow, Russia",Russia
Parts Unknown,3,6,Russia,St. Petersburg,Russia,NA,"59.934280,30.335099",https://en.wikipedia.org/wiki/Anthony_Bourdain:_Parts_Unknown,59.93428,30.335099,"Season 3 | Ep. 6 | St. Petersburg, Russia",Russia
Parts Unknown,3,7,Mississippi Delta,Jackson,United States,Mississippi,"32.298757,-90.184810",https://en.wikipedia.org/wiki/Anthony_Bourdain:_Parts_Unknown,32.298757,-90.18481,"Season 3 | Ep. 7 | Jackson, United States",USA
Parts Unknown,3,7,Mississippi Delta,Merigold,United States,Mississippi,"33.839001,-90.726209",https://en.wikipedia.org/wiki/Anthony_Bourdain:_Parts_Unknown,33.839001,-90.726209,"Season 3 | Ep. 7 | Merigold, United States",USA
Parts Unknown,3,8,Thailand,Chiang Mai Province,Thailand,NA,"18.787747,98.993128",https://en.wikipedia.org/wiki/Anthony_Bourdain:_Parts_Unknown,18.787747,98.993128,"Season 3 | Ep. 8 | Chiang Mai Province, Thailand",Thailand
Parts Unknown,3,9,"Bahia, Brazil",Bahia,Brazil,NA,"-12.579738,-41.700727",https://en.wikipedia.org/wiki/Anthony_Bourdain:_Parts_Unknown,-12.579738,-41.700727,"Season 3 | Ep. 9 | Bahia, Brazil",Brazil
Parts Unknown,4,2,Shanghai,Shanghai,China,NA,"31.230390,121.473702",https://en.wikipedia.org/wiki/Anthony_Bourdain:_Parts_Unknown,31.23039,121.473702,"Season 4 | Ep. 2 | Shanghai, China",China
Parts Unknown,4,3,The Bronx,"The Bronx, New York",United States,New York,"40.844782,-73.864827",https://en.wikipedia.org/wiki/Anthony_Bourdain:_Parts_Unknown,40.844782,-73.864827,"Season 4 | Ep. 3 | The Bronx, New York, United States",USA
Parts Unknown,4,4,Paraguay,Asunción,Paraguay,NA,"-25.263740,-57.575926",https://www.cnn.com/travel/article/paraguay-parts-unknown-season-4-ep-3/index.html,-25.26374,-57.575926,"Season 4 | Ep. 4 | Asunción, Paraguay",Paraguay
Parts Unknown,4,5,Vietnam,Huế,Vietnam,NA,"16.463712,107.590863",https://en.wikipedia.org/wiki/Anthony_Bourdain:_Parts_Unknown,16.463712,107.590863,"Season 4 | Ep. 5 | Huế, Vietnam",Vietnam
Parts Unknown,4,5,Vietnam,Quảng Trị,Vietnam,NA,"16.794347,106.963409",https://en.wikipedia.org/wiki/Anthony_Bourdain:_Parts_Unknown,16.794347,106.963409,"Season 4 | Ep. 5 | Quảng Trị, Vietnam",Vietnam
Parts Unknown,4,6,Tanzania,Zanzibar,Tanzania,NA,"-6.135730,39.362120",https://www.imdb.com/title/tt4129732/plotsummary?ref_=tt_ov_pl,-6.13573,39.36212,"Season 4 | Ep. 6 | Zanzibar, Tanzania",Tanzania
Parts Unknown,4,6,Tanzania,Serengeti,Tanzania,NA,"-2.153994,34.685651",https://www.imdb.com/title/tt4129732/plotsummary?ref_=tt_ov_pl,-2.153994,34.685651,"Season 4 | Ep. 6 | Serengeti, Tanzania",Tanzania
Parts Unknown,4,6,Tanzania,Ngorongoro Crater,Tanzania,NA,"-3.161752,35.587670",https://www.imdb.com/title/tt4129732/plotsummary?ref_=tt_ov_pl,-3.161752,35.58767,"Season 4 | Ep. 6 | Ngorongoro Crater, Tanzania",Tanzania
Parts Unknown,4,7,Iran,Isfana,Iran,NA,"32.654627,51.667983",https://en.wikipedia.org/wiki/Anthony_Bourdain:_Parts_Unknown,32.654627,51.667983,"Season 4 | Ep. 7 | Isfana, Iran",Iran
Parts Unknown,4,7,Iran,Tehran,Iran,NA,"35.689197,51.388974",https://en.wikipedia.org/wiki/Anthony_Bourdain:_Parts_Unknown,35.689197,51.388974,"Season 4 | Ep. 7 | Tehran, Iran",Iran
Parts Unknown,4,8,Massachusetts,Provincetown,United States,Massachusetts,"42.058441,-70.178643",https://en.wikipedia.org/wiki/Anthony_Bourdain:_Parts_Unknown,42.058441,-70.178643,"Season 4 | Ep. 8 | Provincetown, United States",USA
Parts Unknown,4,8,Massachusetts,Franklin County,United States,Massachusetts,"42.530599,-72.615117",https://en.wikipedia.org/wiki/Anthony_Bourdain:_Parts_Unknown,42.530599,-72.615117,"Season 4 | Ep. 8 | Franklin County, United States",USA
Parts Unknown,4,9,Jamaica,Port Antonio,Jamaica,NA,"18.171276,-76.447632",https://en.wikipedia.org/wiki/Anthony_Bourdain:_Parts_Unknown,18.171276,-76.447632,"Season 4 | Ep. 9 | Port Antonio, Jamaica",Jamaica
Parts Unknown,4,9,Jamaica,Oracabessa,Jamaica,NA,"18.403475,-76.938379",https://en.wikipedia.org/wiki/Anthony_Bourdain:_Parts_Unknown,18.403475,-76.938379,"Season 4 | Ep. 9 | Oracabessa, Jamaica",Jamaica
Parts Unknown,5,2,Korea,Seoul,South Korea,NA,"37.566535,126.977969",https://en.wikipedia.org/wiki/Anthony_Bourdain:_Parts_Unknown,37.566535,126.977969,"Season 5 | Ep. 2 | Seoul, South Korea",South Korea
Parts Unknown,5,3,Miami,Miami,United States,Florida,"25.761680,-80.191790",https://en.wikipedia.org/wiki/Anthony_Bourdain:_Parts_Unknown,25.76168,-80.19179,"Season 5 | Ep. 3 | Miami, United States",USA
Parts Unknown,5,4,Scotland,Glasgow,"Scotland, United Kingdom",NA,"55.864237,-4.251806",https://en.wikipedia.org/wiki/Anthony_Bourdain:_Parts_Unknown,55.864237,-4.251806,"Season 5 | Ep. 4 | Glasgow, Scotland, United Kingdom",Scotland
Parts Unknown,5,5,Madagascar,Antananarivo,Madagascar,NA,"-18.879190,47.507905",https://en.wikipedia.org/wiki/Anthony_Bourdain:_Parts_Unknown,-18.87919,47.507905,"Season 5 | Ep. 5 | Antananarivo, Madagascar",Madagascar
Parts Unknown,5,6,New Jersey,Barnegat Light,United States,New Jersey,"39.757620,-74.106247",https://en.wikipedia.org/wiki/Anthony_Bourdain:_Parts_Unknown,39.75762,-74.106247,"Season 5 | Ep. 6 | Barnegat Light, United States",USA
Parts Unknown,5,6,New Jersey,Atlantic City,United States,New Jersey,"39.364283,-74.422927",https://en.wikipedia.org/wiki/Anthony_Bourdain:_Parts_Unknown,39.364283,-74.422927,"Season 5 | Ep. 6 | Atlantic City, United States",USA
Parts Unknown,5,6,New Jersey,Fort Lee,United States,New Jersey,"40.850933,-73.970138",https://en.wikipedia.org/wiki/Anthony_Bourdain:_Parts_Unknown,40.850933,-73.970138,"Season 5 | Ep. 6 | Fort Lee, United States",USA
Parts Unknown,5,6,New Jersey,Asbury Park,United States,New Jersey,"40.220391,-74.012082",https://en.wikipedia.org/wiki/Anthony_Bourdain:_Parts_Unknown,40.220391,-74.012082,"Season 5 | Ep. 6 | Asbury Park, United States",USA
Parts Unknown,5,6,New Jersey,Camden,United States,New Jersey,"39.925946,-75.119620",https://en.wikipedia.org/wiki/Anthony_Bourdain:_Parts_Unknown,39.925946,-75.11962,"Season 5 | Ep. 6 | Camden, United States",USA
Parts Unknown,5,7,Budapest,Budapest,Hungary,NA,"47.497912,19.040235",https://en.wikipedia.org/wiki/Anthony_Bourdain:_Parts_Unknown,47.497912,19.040235,"Season 5 | Ep. 7 | Budapest, Hungary",Hungary
Parts Unknown,5,8,Hawaii,Honolulu,United States,Hawaii,"21.306944,-157.858333",https://en.wikipedia.org/wiki/Anthony_Bourdain:_Parts_Unknown,21.306944,-157.858333,"Season 5 | Ep. 8 | Honolulu, United States",USA
Parts Unknown,5,8,Hawaii,Molokai,United States,Hawaii,"21.144393,-157.022630",https://en.wikipedia.org/wiki/Anthony_Bourdain:_Parts_Unknown,21.144393,-157.02263,"Season 5 | Ep. 8 | Molokai, United States",USA
Parts Unknown,5,9,Beirut,Beirut,Lebanon,NA,"33.893791,35.501777",https://en.wikipedia.org/wiki/Anthony_Bourdain:_Parts_Unknown,33.893791,35.501777,"Season 5 | Ep. 9 | Beirut, Lebanon",Lebanon
Parts Unknown,6,2,Cuba,Havana,Cuba,NA,"23.113592,-82.366596",https://en.wikipedia.org/wiki/Anthony_Bourdain:_Parts_Unknown,23.113592,-82.366596,"Season 6 | Ep. 2 | Havana, Cuba",Cuba
Parts Unknown,6,2,Cuba,Santiago,Cuba,NA,"20.016930,-75.830154",https://en.wikipedia.org/wiki/Anthony_Bourdain:_Parts_Unknown,20.01693,-75.830154,"Season 6 | Ep. 2 | Santiago, Cuba",Cuba
Parts Unknown,6,3,"Marseille, France",Marseille,France,NA,"43.296482,5.369780",https://en.wikipedia.org/wiki/Anthony_Bourdain:_Parts_Unknown,43.296482,5.36978,"Season 6 | Ep. 3 | Marseille, France",France
Parts Unknown,6,4,Okinawa,"Okinawa, Japan",Japan,NA,"26.212401,127.680932",https://en.wikipedia.org/wiki/Anthony_Bourdain:_Parts_Unknown,26.212401,127.680932,"Season 6 | Ep. 4 | Okinawa, Japan, Japan",Japan
Parts Unknown,6,5,Bay Area,San Francisco Bay Area,United States,California,"37.827178,-122.291308",https://en.wikipedia.org/wiki/Anthony_Bourdain:_Parts_Unknown,37.827178,-122.291308,"Season 6 | Ep. 5 | San Francisco Bay Area, United States",USA
Parts Unknown,6,6,Ethiopia,Addis Ababa,Ethiopia,NA,"8.980603,38.757761",https://en.wikipedia.org/wiki/Anthony_Bourdain:_Parts_Unknown,8.980603,38.757761,"Season 6 | Ep. 6 | Addis Ababa, Ethiopia",Ethiopia
Parts Unknown,6,7,Borneo,Kuching,Malaysia,NA,"1.553504,110.359293",https://en.wikipedia.org/wiki/Anthony_Bourdain:_Parts_Unknown,1.553504,110.359293,"Season 6 | Ep. 7 | Kuching, Malaysia",Malaysia
Parts Unknown,6,8,Istanbul,Istanbul,Turkey,NA,"41.008238,28.978359",https://en.wikipedia.org/wiki/Anthony_Bourdain:_Parts_Unknown,41.008238,28.978359,"Season 6 | Ep. 8 | Istanbul, Turkey",Turkey
Parts Unknown,6,9,"Charleston, SC",Charleston,United States,South Carolina,"32.776475,-79.931051",https://en.wikipedia.org/wiki/Anthony_Bourdain:_Parts_Unknown,32.776475,-79.931051,"Season 6 | Ep. 9 | Charleston, United States",USA
Parts Unknown,6,9,"Charleston, SC",Hemingway,United States,South Carolina,"33.753777,-79.447557",https://en.wikipedia.org/wiki/Anthony_Bourdain:_Parts_Unknown,33.753777,-79.447557,"Season 6 | Ep. 9 | Hemingway, United States",USA
Parts Unknown,7,2,"Manila, Philippines",Manila,Philippines,NA,"14.599512,120.984219",https://en.wikipedia.org/wiki/Anthony_Bourdain:_Parts_Unknown,14.599512,120.984219,"Season 7 | Ep. 2 | Manila, Philippines",Philippines
Parts Unknown,7,3,Chicago,Chicago,United States,Illinois,"41.878114,-87.629798",https://en.wikipedia.org/wiki/Anthony_Bourdain:_Parts_Unknown,41.878114,-87.629798,"Season 7 | Ep. 3 | Chicago, United States",USA
Parts Unknown,7,4,The Greek Islands,Naxos,Greece,NA,"37.103566,25.377673",https://en.wikipedia.org/wiki/Anthony_Bourdain:_Parts_Unknown,37.103566,25.377673,"Season 7 | Ep. 4 | Naxos, Greece",Greece
Parts Unknown,7,5,Montana,Butte,United States,Montana,"46.003823,-112.534778",https://en.wikipedia.org/wiki/Anthony_Bourdain:_Parts_Unknown,46.003823,-112.534778,"Season 7 | Ep. 5 | Butte, United States",USA
Parts Unknown,7,5,Montana,Powell County,United States,Montana,"46.931145,-112.974547",https://en.wikipedia.org/wiki/Anthony_Bourdain:_Parts_Unknown,46.931145,-112.974547,"Season 7 | Ep. 5 | Powell County, United States",USA
Parts Unknown,7,5,Montana,Crow Indian Reservation,United States,Montana,"45.383294,-107.833996",https://en.wikipedia.org/wiki/Anthony_Bourdain:_Parts_Unknown,45.383294,-107.833996,"Season 7 | Ep. 5 | Crow Indian Reservation, United States",USA
Parts Unknown,7,6,"Tbilisi, Georgia",Tbilisi,Georgia,NA,"41.789233,44.775387",https://en.wikipedia.org/wiki/Anthony_Bourdain:_Parts_Unknown,41.789233,44.775387,"Season 7 | Ep. 6 | Tbilisi, Georgia",Georgia
Parts Unknown,7,7,Senegal,Dakar,Senegal,NA,"14.716677,-17.467686",https://en.wikipedia.org/wiki/Anthony_Bourdain:_Parts_Unknown,14.716677,-17.467686,"Season 7 | Ep. 7 | Dakar, Senegal",Senegal
Parts Unknown,7,8,"Cologne, Germany",Cologne,Germany,NA,"50.937531,6.960279",https://en.wikipedia.org/wiki/Anthony_Bourdain:_Parts_Unknown,50.937531,6.960279,"Season 7 | Ep. 8 | Cologne, Germany",Germany
Parts Unknown,8,2,Hanoi,Hanoi,Vietnam,NA,"21.027764,105.834160",https://en.wikipedia.org/wiki/Anthony_Bourdain:_Parts_Unknown,21.027764,105.83416,"Season 8 | Ep. 2 | Hanoi, Vietnam",Vietnam
Parts Unknown,8,3,Nashville,Nashville,United States,Tennessee,"36.162664,-86.781602",https://en.wikipedia.org/wiki/Anthony_Bourdain:_Parts_Unknown,36.162664,-86.781602,"Season 8 | Ep. 3 | Nashville, United States",USA
Parts Unknown,8,4,Sichuan,"Chengdu, Sichuan",China,NA,"30.572815,104.066801",https://explorepartsunknown.com/sichuan/eat-like-bourdain-sichuan/,30.572815,104.066801,"Season 8 | Ep. 4 | Chengdu, Sichuan, China",China
Parts Unknown,8,4,Sichuan,"Leshan, Sichuan",China,NA,"29.552115,103.765678",https://explorepartsunknown.com/sichuan/eat-like-bourdain-sichuan/,29.552115,103.765678,"Season 8 | Ep. 4 | Leshan, Sichuan, China",China
Parts Unknown,8,5,London,London,"England, United Kingdom",NA,"51.507351,-0.127758",https://en.wikipedia.org/wiki/Anthony_Bourdain:_Parts_Unknown,51.507351,-0.127758,"Season 8 | Ep. 5 | London, England, United Kingdom",England
Parts Unknown,8,6,Houston,Houston,United States,Texas,"29.760427,-95.369803",https://en.wikipedia.org/wiki/Anthony_Bourdain:_Parts_Unknown,29.760427,-95.369803,"Season 8 | Ep. 6 | Houston, United States",USA
Parts Unknown,8,7,Japan,Ishikawa Prefecture,Japan,NA,"36.594682,136.625573",https://en.wikipedia.org/wiki/Anthony_Bourdain:_Parts_Unknown,36.594682,136.625573,"Season 8 | Ep. 7 | Ishikawa Prefecture, Japan",Japan
Parts Unknown,8,7,Japan,Tochigi Prefecture,Japan,NA,"36.565725,139.883565",https://en.wikipedia.org/wiki/Anthony_Bourdain:_Parts_Unknown,36.565725,139.883565,"Season 8 | Ep. 7 | Tochigi Prefecture, Japan",Japan
Parts Unknown,8,8,Buenos Aires,Buenos Aires,Argentina,NA,"-34.603684,-58.381559",https://en.wikipedia.org/wiki/Anthony_Bourdain:_Parts_Unknown,-34.603684,-58.381559,"Season 8 | Ep. 8 | Buenos Aires, Argentina",Argentina
Parts Unknown,8,9,"Minas Gerais, Brazil",Minas Gerais,Brazil,NA,"-18.512178,-44.555031",https://en.wikipedia.org/wiki/Anthony_Bourdain:_Parts_Unknown,-18.512178,-44.555031,"Season 8 | Ep. 9 | Minas Gerais, Brazil",Brazil
Parts Unknown,8,10,Rome,Rome,Italy,NA,"41.902783,12.496366",https://en.wikipedia.org/wiki/Anthony_Bourdain:_Parts_Unknown,41.902783,12.496366,"Season 8 | Ep. 10 | Rome, Italy",Italy
Parts Unknown,9,2,Los Angeles,Los Angeles,United States,California,"34.052234,-118.243685",https://en.wikipedia.org/wiki/Anthony_Bourdain:_Parts_Unknown,34.052234,-118.243685,"Season 9 | Ep. 2 | Los Angeles, United States",USA
Parts Unknown,9,3,San Sebastian,San Sebastian,Spain,NA,"43.318334,-1.981231",https://en.wikipedia.org/wiki/Anthony_Bourdain:_Parts_Unknown,43.318334,-1.981231,"Season 9 | Ep. 3 | San Sebastian, Spain",Spain
Parts Unknown,9,4,Laos,Luang Prabang,Laos,NA,"20.065623,102.621621",https://explorepartsunknown.com/destination/laos/,20.065623,102.621621,"Season 9 | Ep. 4 | Luang Prabang, Laos",Laos
Parts Unknown,9,5,Queens,"Queens, New York",United States,New York,"40.728224,-73.794852",https://en.wikipedia.org/wiki/Anthony_Bourdain:_Parts_Unknown,40.728224,-73.794852,"Season 9 | Ep. 5 | Queens, New York, United States",USA
Parts Unknown,9,6,Antarctica,Lake Hoare,Antarctica,NA,"-77.628466,162.881828",https://www.eater.com/2017/6/4/15732806/anthony-bourdain-antarctica-parts-unknown,-77.628466,162.881828,"Season 9 | Ep. 6 | Lake Hoare, Antarctica",Antarctica
Parts Unknown,9,7,Oman,Jebel Akhdar,Oman,NA,"23.185608,57.371388",https://explorepartsunknown.com/oman/bourdains-field-notes-oman/,23.185608,57.371388,"Season 9 | Ep. 7 | Jebel Akhdar, Oman",Oman
Parts Unknown,9,7,Oman,Muscat,Oman,NA,"23.585890,58.405923",https://explorepartsunknown.com/oman/bourdains-field-notes-oman/,23.58589,58.405923,"Season 9 | Ep. 7 | Muscat, Oman",Oman
Parts Unknown,9,8,Trinidad,"Port Of Spain, Trinidad",Trinidad and Tobago,NA,"10.654901,-61.501926",https://uproxx.com/life/anthony-bourdain-parts-unknown-trinidad/2/,10.654901,-61.501926,"Season 9 | Ep. 8 | Port Of Spain, Trinidad, Trinidad and Tobago",Trinidad and Tobago
Parts Unknown,9,9,"Porto, Portugal",Porto,Portugal,NA,"41.157944,-8.629105",https://en.wikipedia.org/wiki/Anthony_Bourdain:_Parts_Unknown,41.157944,-8.629105,"Season 9 | Ep. 9 | Porto, Portugal",Portugal
Parts Unknown,10,1,Singapore,Singapore,Singapore,NA,"1.352083,103.819836",https://en.wikipedia.org/wiki/Anthony_Bourdain:_Parts_Unknown,1.352083,103.819836,"Season 10 | Ep. 1 | Singapore, Singapore",Singapore
Parts Unknown,10,2,French Alps,Argentière,France,NA,"45.983986,6.926873",https://explorepartsunknown.com/french-alps/eat-like-bourdain-2/,45.983986,6.926873,"Season 10 | Ep. 2 | Argentière, France",France
Parts Unknown,10,2,French Alps,Chamonix-Mont-Blanc,France,NA,"45.923697,6.869433",https://explorepartsunknown.com/french-alps/eat-like-bourdain-2/,45.923697,6.869433,"Season 10 | Ep. 2 | Chamonix-Mont-Blanc, France",France
Parts Unknown,10,2,French Alps,Nus,Italy,NA,"45.800828,7.499153",https://explorepartsunknown.com/french-alps/eat-like-bourdain-2/,45.800828,7.499153,"Season 10 | Ep. 2 | Nus, Italy",Italy
Parts Unknown,10,2,French Alps,Vallorcine,France,NA,"46.033505,6.931817",https://en.wikipedia.org/wiki/Anthony_Bourdain:_Parts_Unknown,46.033505,6.931817,"Season 10 | Ep. 2 | Vallorcine, France",France
Parts Unknown,10,3,"Lagos, Nigeria",Lagos,Nigeria,NA,"6.524379,3.379206",https://en.wikipedia.org/wiki/Anthony_Bourdain:_Parts_Unknown,6.524379,3.379206,"Season 10 | Ep. 3 | Lagos, Nigeria",Nigeria
Parts Unknown,10,4,Pittsburgh,Pittsburg,United States,Pennsylvania,"40.440625,-79.995886",https://en.wikipedia.org/wiki/Anthony_Bourdain:_Parts_Unknown,40.440625,-79.995886,"Season 10 | Ep. 4 | Pittsburg, United States",USA
Parts Unknown,10,5,Sri Lanka,Colombo,Sri Lanka,NA,"6.927079,79.861243",https://explorepartsunknown.com/sri-lanka/bourdains-field-note-sri-lanka/,6.927079,79.861243,"Season 10 | Ep. 5 | Colombo, Sri Lanka",Sri Lanka
Parts Unknown,10,5,Sri Lanka,Jaffna,Sri Lanka,NA,"9.661498,80.025547",https://explorepartsunknown.com/sri-lanka/bourdains-field-note-sri-lanka/,9.661498,80.025547,"Season 10 | Ep. 5 | Jaffna, Sri Lanka",Sri Lanka
Parts Unknown,10,6,Puerto Rico,"Valle Costero, Puerto Rico",United States,NA,"18.010562,-66.376779",https://www.cntraveler.com/story/recap-anthony-bourdains-parts-unknown-visits-puerto-rico,18.010562,-66.376779,"Season 10 | Ep. 6 | Valle Costero, Puerto Rico, United States",USA
Parts Unknown,10,6,Puerto Rico,"San Juan, Puerto Rico",United States,NA,"18.465539,-66.105735",https://www.cntraveler.com/story/recap-anthony-bourdains-parts-unknown-visits-puerto-rico,18.465539,-66.105735,"Season 10 | Ep. 6 | San Juan, Puerto Rico, United States",USA
Parts Unknown,10,6,Puerto Rico,"Ciales, Puerto Rico",United States,NA,"18.335325,-66.468072",https://www.cntraveler.com/story/recap-anthony-bourdains-parts-unknown-visits-puerto-rico,18.335325,-66.468072,"Season 10 | Ep. 6 | Ciales, Puerto Rico, United States",USA
Parts Unknown,10,6,Puerto Rico,"Vieques, Puerto Rico",United States,NA,"18.126285,-65.440098",https://www.cntraveler.com/story/recap-anthony-bourdains-parts-unknown-visits-puerto-rico,18.126285,-65.440098,"Season 10 | Ep. 6 | Vieques, Puerto Rico, United States",USA
Parts Unknown,10,7,Seattle,Seattle,United States,Washington,"47.606209,-122.332071",https://en.wikipedia.org/wiki/Anthony_Bourdain:_Parts_Unknown,47.606209,-122.332071,"Season 10 | Ep. 7 | Seattle, United States",USA
Parts Unknown,10,8,Southern Italy,Lecce,Italy,NA,"40.351515,18.175016",https://www.cntraveler.com/story/anthony-bourdains-parts-unknown-visits-southern-italy,40.351515,18.175016,"Season 10 | Ep. 8 | Lecce, Italy",Italy
Parts Unknown,10,8,Southern Italy,Bernalda,Italy,NA,"40.410981,16.689595",https://www.cntraveler.com/story/anthony-bourdains-parts-unknown-visits-southern-italy,40.410981,16.689595,"Season 10 | Ep. 8 | Bernalda, Italy",Italy
Parts Unknown,10,8,Southern Italy,Torre Canne,Italy,NA,"40.840472,17.470018",https://www.cntraveler.com/story/anthony-bourdains-parts-unknown-visits-southern-italy,40.840472,17.470018,"Season 10 | Ep. 8 | Torre Canne, Italy",Italy
Parts Unknown,11,1,West Virginia,War,United States,West Virginia,"37.301225,-81.690943",https://en.wikipedia.org/wiki/Anthony_Bourdain:_Parts_Unknown,37.301225,-81.690943,"Season 11 | Ep. 1 | War, United States",USA
Parts Unknown,11,1,West Virginia,Man,United States,West Virginia,"37.739829,-81.877619",https://en.wikipedia.org/wiki/Anthony_Bourdain:_Parts_Unknown,37.739829,-81.877619,"Season 11 | Ep. 1 | Man, United States",USA
Parts Unknown,11,1,West Virginia,Lost Creek,United States,West Virginia,"39.161203,-80.352034",https://en.wikipedia.org/wiki/Anthony_Bourdain:_Parts_Unknown,39.161203,-80.352034,"Season 11 | Ep. 1 | Lost Creek, United States",USA
Parts Unknown,11,1,West Virginia,Welch,United States,West Virginia,"37.432891,-81.584551",https://en.wikipedia.org/wiki/Anthony_Bourdain:_Parts_Unknown,37.432891,-81.584551,"Season 11 | Ep. 1 | Welch, United States",USA
Parts Unknown,11,1,West Virginia,Philippi,United States,West Virginia,"39.152320,-80.040358",https://en.wikipedia.org/wiki/Anthony_Bourdain:_Parts_Unknown,39.15232,-80.040358,"Season 11 | Ep. 1 | Philippi, United States",USA
Parts Unknown,11,2,Uruguay,Santa Lucia,Uruguay,NA,"-34.452252,-56.388019",http://cnnpressroom.blogs.cnn.com/2018/04/09/season-11-of-cnn-original-series-anthony-bourdain-parts-unknown-launches-sunday-april-29-at-9pm-with-a-tour-of-west-virginia-in-an-extended-episode/,-34.452252,-56.388019,"Season 11 | Ep. 2 | Santa Lucia, Uruguay",Uruguay
Parts Unknown,11,2,Uruguay,Montevideo,Uruguay,NA,"-34.901113,-56.164531",http://cnnpressroom.blogs.cnn.com/2018/04/09/season-11-of-cnn-original-series-anthony-bourdain-parts-unknown-launches-sunday-april-29-at-9pm-with-a-tour-of-west-virginia-in-an-extended-episode/,-34.901113,-56.164531,"Season 11 | Ep. 2 | Montevideo, Uruguay",Uruguay
Parts Unknown,11,2,Uruguay,Jose Ignacio,Uruguay,NA,"-34.835915,-54.645146",http://cnnpressroom.blogs.cnn.com/2018/04/09/season-11-of-cnn-original-series-anthony-bourdain-parts-unknown-launches-sunday-april-29-at-9pm-with-a-tour-of-west-virginia-in-an-extended-episode/,-34.835915,-54.645146,"Season 11 | Ep. 2 | Jose Ignacio, Uruguay",Uruguay
Parts Unknown,11,3,Newfoundland,"Petty Harbour, Newfoundland",Canada,NA,"47.469784,-52.705178",https://www.cntraveler.com/story/recap-anthony-bourdains-parts-unknown-visits-newfoundland,47.469784,-52.705178,"Season 11 | Ep. 3 | Petty Harbour, Newfoundland, Canada",Canada
Parts Unknown,11,3,Newfoundland,"St. John's, Newfoundland",Canada,NA,"47.561510,-52.712577",https://www.cntraveler.com/story/recap-anthony-bourdains-parts-unknown-visits-newfoundland,47.56151,-52.712577,"Season 11 | Ep. 3 | St. Johns, Newfoundland, Canada",Canada
Parts Unknown,11,3,Newfoundland,St. Pierre and Miquelon,France,NA,"46.885200,-56.315900",https://www.cntraveler.com/story/recap-anthony-bourdains-parts-unknown-visits-newfoundland,46.8852,-56.3159,"Season 11 | Ep. 3 | St. Pierre and Miquelon, France",France
Parts Unknown,11,4,Armenia,Yerevan,Armenia,NA,"40.179186,44.499103",http://cnnpressroom.blogs.cnn.com/2018/04/09/season-11-of-cnn-original-series-anthony-bourdain-parts-unknown-launches-sunday-april-29-at-9pm-with-a-tour-of-west-virginia-in-an-extended-episode/,40.179186,44.499103,"Season 11 | Ep. 4 | Yerevan, Armenia",Armenia
Parts Unknown,11,5,Hong Kong,Hong Kong,China,NA,"22.396428,114.109497",https://en.wikipedia.org/wiki/Anthony_Bourdain:_Parts_Unknown,22.396428,114.109497,"Season 11 | Ep. 5 | Hong Kong, China",China
Parts Unknown,11,6,Berlin,Berlin,Germany,NA,"52.520007,13.404954",https://en.wikipedia.org/wiki/Anthony_Bourdain:_Parts_Unknown,52.520007,13.404954,"Season 11 | Ep. 6 | Berlin, Germany",Germany
Parts Unknown,11,7,Cajun Mardi Gras,Mamou,United States,Louisiana,"30.633809,-92.419299",http://cnnpressroom.blogs.cnn.com/2018/04/09/season-11-of-cnn-original-series-anthony-bourdain-parts-unknown-launches-sunday-april-29-at-9pm-with-a-tour-of-west-virginia-in-an-extended-episode/,30.633809,-92.419299,"Season 11 | Ep. 7 | Mamou, United States",USA
Parts Unknown,11,7,Cajun Mardi Gras,Grand Coteau,United States,Louisiana,"30.419920,-92.046509",http://cnnpressroom.blogs.cnn.com/2018/04/09/season-11-of-cnn-original-series-anthony-bourdain-parts-unknown-launches-sunday-april-29-at-9pm-with-a-tour-of-west-virginia-in-an-extended-episode/,30.41992,-92.046509,"Season 11 | Ep. 7 | Grand Coteau, United States",USA
Parts Unknown,11,7,Cajun Mardi Gras,Lafayette,United States,Louisiana,"30.224090,-92.019843",http://cnnpressroom.blogs.cnn.com/2018/04/09/season-11-of-cnn-original-series-anthony-bourdain-parts-unknown-launches-sunday-april-29-at-9pm-with-a-tour-of-west-virginia-in-an-extended-episode/,30.22409,-92.019843,"Season 11 | Ep. 7 | Lafayette, United States",USA
Parts Unknown,11,7,Cajun Mardi Gras,Opelousas,United States,Louisiana,"30.533530,-92.081509",http://cnnpressroom.blogs.cnn.com/2018/04/09/season-11-of-cnn-original-series-anthony-bourdain-parts-unknown-launches-sunday-april-29-at-9pm-with-a-tour-of-west-virginia-in-an-extended-episode/,30.53353,-92.081509,"Season 11 | Ep. 7 | Opelousas, United States",USA
Parts Unknown,11,8,Bhutan,Thimphu,Bhutan,NA,"27.472792,89.639286",http://cnnpressroom.blogs.cnn.com/2018/04/09/season-11-of-cnn-original-series-anthony-bourdain-parts-unknown-launches-sunday-april-29-at-9pm-with-a-tour-of-west-virginia-in-an-extended-episode/,27.472792,89.639286,"Season 11 | Ep. 8 | Thimphu, Bhutan",Bhutan
Parts Unknown,11,8,Bhutan,Punakha,Bhutan,NA,"27.592087,89.879746",http://cnnpressroom.blogs.cnn.com/2018/04/09/season-11-of-cnn-original-series-anthony-bourdain-parts-unknown-launches-sunday-april-29-at-9pm-with-a-tour-of-west-virginia-in-an-extended-episode/,27.592087,89.879746,"Season 11 | Ep. 8 | Punakha, Bhutan",Bhutan
Parts Unknown,11,8,Bhutan,Bumthang,Bhutan,NA,"27.641839,90.677305",http://cnnpressroom.blogs.cnn.com/2018/04/09/season-11-of-cnn-original-series-anthony-bourdain-parts-unknown-launches-sunday-april-29-at-9pm-with-a-tour-of-west-virginia-in-an-extended-episode/,27.641839,90.677305,"Season 11 | Ep. 8 | Bumthang, Bhutan",Bhutan
